{
"type": "FeatureCollection",
"name": "Catamarca",
"crs": { "type": "name", "properties": { "name": "urn:ogc:def:crs:OGC:1.3:CRS84" } },
"features": [
{ "type": "Feature", "properties": { "circuito": "00082", "codprov": "03", "coddepto": "010" }, "geometry": { "type": "MultiPolygon", "coordinates": [ [ [ [ -65.8399, -28.1305, 0.0 ], [ -65.8876, -27.963, 0.0 ], [ -65.8449, -27.9599, 0.0 ], [ -65.7952, -28.0427, 0.0 ], [ -65.7917, -28.0653, 0.0 ], [ -65.784, -28.0682, 0.0 ], [ -65.765, -28.1099, 0.0 ], [ -65.8399, -28.1305, 0.0 ] ] ] ] } },
{ "type": "Feature", "properties": { "circuito": "00083", "codprov": "03", "coddepto": "010" }, "geometry": { "type": "MultiPolygon", "coordinates": [ [ [ [ -65.8437, -28.1312, 0.0 ], [ -65.8281, -28.2666, 0.0 ], [ -65.842, -28.277, 0.0 ], [ -65.8468, -28.2885, 0.0 ], [ -65.8449, -28.3207, 0.0 ], [ -65.8643, -28.3347, 0.0 ], [ -65.8723, -28.357, 0.0 ], [ -65.878, -28.3582, 0.0 ], [ -65.8962, -28.3312, 0.0 ], [ -65.9091, -28.3446, 0.0 ], [ -65.9998, -28.3849, 0.0 ], [ -66.0085, -28.3916, 0.0 ], [ -66.0396, -28.4115, 0.0 ], [ -66.0626, -28.3196, 0.0 ], [ -66.0383, -28.2473, 0.0 ], [ -66.0419, -28.2321, 0.0 ], [ -66.0342, -28.2029, 0.0 ], [ -66.047, -28.1839, 0.0 ], [ -66.0387, -28.1588, 0.0 ], [ -65.8437, -28.1312, 0.0 ] ] ] ] } },
{ "type": "Feature", "properties": { "circuito": "00084", "codprov": "03", "coddepto": "010" }, "geometry": { "type": "MultiPolygon", "coordinates": [ [ [ [ -65.8437, -28.1312, 0.0 ], [ -65.7635, -28.11, 0.0 ], [ -65.7515, -28.2161, 0.0 ], [ -65.7447, -28.223, 0.0 ], [ -65.7439, -28.2329, 0.0 ], [ -65.7334, -28.2465, 0.0 ], [ -65.7551, -28.2466, 0.0 ], [ -65.7638, -28.2455, 0.0 ], [ -65.7689, -28.253, 0.0 ], [ -65.776, -28.2552, 0.0 ], [ -65.7816, -28.2551, 0.0 ], [ -65.7821, -28.253, 0.0 ], [ -65.7895, -28.2508, 0.0 ], [ -65.7944, -28.2527, 0.0 ], [ -65.7983, -28.2504, 0.0 ], [ -65.8062, -28.2518, 0.0 ], [ -65.8129, -28.2599, 0.0 ], [ -65.8156, -28.2576, 0.0 ], [ -65.8187, -28.2579, 0.0 ], [ -65.8196, -28.2636, 0.0 ], [ -65.8218, -28.2607, 0.0 ], [ -65.8249, -28.2681, 0.0 ], [ -65.8286, -28.2665, 0.0 ], [ -65.8437, -28.1312, 0.0 ] ] ] ] } },
{ "type": "Feature", "properties": { "circuito": "00085", "codprov": "03", "coddepto": "010" }, "geometry": { "type": "MultiPolygon", "coordinates": [ [ [ [ -65.8981, -27.737, 0.0 ], [ -66.033, -27.7421, 0.0 ], [ -66.0078, -27.7147, 0.0 ], [ -65.9986, -27.7089, 0.0 ], [ -65.9918, -27.699, 0.0 ], [ -65.9965, -27.6568, 0.0 ], [ -65.9949, -27.6539, 0.0 ], [ -65.9972, -27.647, 0.0 ], [ -66.0033, -27.6406, 0.0 ], [ -66.0115, -27.6044, 0.0 ], [ -66.0064, -27.5951, 0.0 ], [ -65.996, -27.5863, 0.0 ], [ -65.9833, -27.5818, 0.0 ], [ -65.9249, -27.6833, 0.0 ], [ -65.9101, -27.7031, 0.0 ], [ -65.8981, -27.737, 0.0 ] ] ] ] } },
{ "type": "Feature", "properties": { "circuito": "00086", "codprov": "03", "coddepto": "010" }, "geometry": { "type": "MultiPolygon", "coordinates": [ [ [ [ -66.0387, -28.1588, 0.0 ], [ -66.0984, -28.0205, 0.0 ], [ -66.0886, -27.9816, 0.0 ], [ -65.8876, -27.963, 0.0 ], [ -65.8389, -28.1324, 0.0 ], [ -66.0387, -28.1588, 0.0 ] ] ] ] } },
{ "type": "Feature", "properties": { "circuito": "00087", "codprov": "03", "coddepto": "010" }, "geometry": { "type": "MultiPolygon", "coordinates": [ [ [ [ -65.8449, -27.9599, 0.0 ], [ -65.8408, -27.9601, 0.0 ], [ -65.8545, -27.9346, 0.0 ], [ -65.8023, -27.9002, 0.0 ], [ -65.7967, -27.9247, 0.0 ], [ -65.786, -27.9414, 0.0 ], [ -65.7705, -28.0284, 0.0 ], [ -65.7952, -28.0427, 0.0 ], [ -65.8449, -27.9599, 0.0 ] ] ] ] } },
{ "type": "Feature", "properties": { "circuito": "00088", "codprov": "03", "coddepto": "010" }, "geometry": { "type": "MultiPolygon", "coordinates": [ [ [ [ -66.0745, -27.8635, 0.0 ], [ -65.8337, -27.8516, 0.0 ], [ -65.8172, -27.8589, 0.0 ], [ -65.8023, -27.9002, 0.0 ], [ -65.8545, -27.9346, 0.0 ], [ -65.8408, -27.9601, 0.0 ], [ -65.8614, -27.9613, 0.0 ], [ -66.0886, -27.9816, 0.0 ], [ -66.108, -27.9759, 0.0 ], [ -66.0965, -27.942, 0.0 ], [ -66.0896, -27.943, 0.0 ], [ -66.0816, -27.9202, 0.0 ], [ -66.0603, -27.9013, 0.0 ], [ -66.0745, -27.8635, 0.0 ] ] ] ] } },
{ "type": "Feature", "properties": { "circuito": "00089", "codprov": "03", "coddepto": "010" }, "geometry": { "type": "MultiPolygon", "coordinates": [ [ [ [ -66.0745, -27.8635, 0.0 ], [ -66.0806, -27.8555, 0.0 ], [ -66.0815, -27.833, 0.0 ], [ -66.0887, -27.8306, 0.0 ], [ -66.0874, -27.8236, 0.0 ], [ -66.0957, -27.8203, 0.0 ], [ -66.0981, -27.8015, 0.0 ], [ -66.0922, -27.7786, 0.0 ], [ -66.0923, -27.7704, 0.0 ], [ -66.0744, -27.7508, 0.0 ], [ -66.0717, -27.7574, 0.0 ], [ -66.033, -27.7421, 0.0 ], [ -65.8981, -27.737, 0.0 ], [ -65.8387, -27.8423, 0.0 ], [ -65.8334, -27.8497, 0.0 ], [ -66.0745, -27.8635, 0.0 ] ] ] ] } },
{ "type": "Feature", "properties": { "circuito": "00033", "codprov": "03", "coddepto": "004" }, "geometry": { "type": "MultiPolygon", "coordinates": [ [ [ [ -65.6761, -28.7377, 0.0 ], [ -65.4595, -28.6751, 0.0 ], [ -65.4846, -28.7295, 0.0 ], [ -65.5494, -28.7827, 0.0 ], [ -65.6645, -28.7719, 0.0 ], [ -65.6755, -28.7544, 0.0 ], [ -65.6761, -28.7377, 0.0 ] ] ] ] } },
{ "type": "Feature", "properties": { "circuito": "00034", "codprov": "03", "coddepto": "004" }, "geometry": { "type": "MultiPolygon", "coordinates": [ [ [ [ -65.3424, -28.6108, 0.0 ], [ -65.345, -28.6144, 0.0 ], [ -65.3458, -28.6122, 0.0 ], [ -65.3424, -28.6108, 0.0 ] ] ], [ [ [ -65.345, -28.6144, 0.0 ], [ -65.3322, -28.6501, 0.0 ], [ -65.3056, -28.663, 0.0 ], [ -65.305, -28.7305, 0.0 ], [ -65.3183, -28.7283, 0.0 ], [ -65.3452, -28.783, 0.0 ], [ -65.4846, -28.7295, 0.0 ], [ -65.46, -28.6793, 0.0 ], [ -65.4578, -28.681, 0.0 ], [ -65.4212, -28.6815, 0.0 ], [ -65.4028, -28.6511, 0.0 ], [ -65.3656, -28.643, 0.0 ], [ -65.345, -28.6144, 0.0 ] ] ] ] } },
{ "type": "Feature", "properties": { "circuito": "00035", "codprov": "03", "coddepto": "004" }, "geometry": { "type": "MultiPolygon", "coordinates": [ [ [ [ -65.6781, -28.8731, 0.0 ], [ -65.5086, -28.8902, 0.0 ], [ -65.5267, -28.9505, 0.0 ], [ -65.5291, -28.9727, 0.0 ], [ -65.6604, -28.9738, 0.0 ], [ -65.6766, -28.8781, 0.0 ], [ -65.6781, -28.8731, 0.0 ] ] ] ] } },
{ "type": "Feature", "properties": { "circuito": "00036", "codprov": "03", "coddepto": "004" }, "geometry": { "type": "MultiPolygon", "coordinates": [ [ [ [ -65.6774, -28.7351, 0.0 ], [ -65.682, -28.716, 0.0 ], [ -65.6724, -28.7029, 0.0 ], [ -65.6721, -28.689, 0.0 ], [ -65.6586, -28.6655, 0.0 ], [ -65.5693, -28.7044, 0.0 ], [ -65.6774, -28.7351, 0.0 ] ] ] ] } },
{ "type": "Feature", "properties": { "circuito": "00037", "codprov": "03", "coddepto": "004" }, "geometry": { "type": "MultiPolygon", "coordinates": [ [ [ [ -65.5086, -28.8902, 0.0 ], [ -65.6781, -28.8731, 0.0 ], [ -65.6716, -28.8285, 0.0 ], [ -65.6605, -28.8149, 0.0 ], [ -65.6608, -28.8072, 0.0 ], [ -65.6588, -28.7924, 0.0 ], [ -65.6645, -28.7719, 0.0 ], [ -65.5494, -28.7827, 0.0 ], [ -65.5086, -28.8902, 0.0 ] ] ] ] } },
{ "type": "Feature", "properties": { "circuito": "00038", "codprov": "03", "coddepto": "004" }, "geometry": { "type": "MultiPolygon", "coordinates": [ [ [ [ -65.6604, -28.9738, 0.0 ], [ -65.5291, -28.9727, 0.0 ], [ -65.5294, -28.9899, 0.0 ], [ -65.4813, -29.1195, 0.0 ], [ -65.4825, -29.1221, 0.0 ], [ -65.5951, -29.1296, 0.0 ], [ -65.6604, -28.9738, 0.0 ] ] ] ] } },
{ "type": "Feature", "properties": { "circuito": "00039", "codprov": "03", "coddepto": "004" }, "geometry": { "type": "MultiPolygon", "coordinates": [ [ [ [ -65.6007, -29.3229, 0.0 ], [ -65.6004, -29.2992, 0.0 ], [ -65.6071, -29.2721, 0.0 ], [ -65.5562, -29.2719, 0.0 ], [ -65.4705, -29.2651, 0.0 ], [ -65.4786, -29.2728, 0.0 ], [ -65.4837, -29.2792, 0.0 ], [ -65.4731, -29.2989, 0.0 ], [ -65.4767, -29.3262, 0.0 ], [ -65.5011, -29.4803, 0.0 ], [ -65.5511, -29.4651, 0.0 ], [ -65.5545, -29.4211, 0.0 ], [ -65.6024, -29.3355, 0.0 ], [ -65.6007, -29.3229, 0.0 ] ] ] ] } },
{ "type": "Feature", "properties": { "circuito": "00040", "codprov": "03", "coddepto": "004" }, "geometry": { "type": "MultiPolygon", "coordinates": [ [ [ [ -65.6071, -29.2721, 0.0 ], [ -65.6135, -29.2509, 0.0 ], [ -65.5951, -29.1296, 0.0 ], [ -65.4825, -29.1221, 0.0 ], [ -65.4654, -29.1502, 0.0 ], [ -65.5148, -29.2162, 0.0 ], [ -65.5342, -29.2701, 0.0 ], [ -65.6071, -29.2721, 0.0 ] ] ] ] } },
{ "type": "Feature", "properties": { "circuito": "00041", "codprov": "03", "coddepto": "004" }, "geometry": { "type": "MultiPolygon", "coordinates": [ [ [ [ -65.6586, -28.6655, 0.0 ], [ -65.6439, -28.6469, 0.0 ], [ -65.6301, -28.6109, 0.0 ], [ -65.4612, -28.6581, 0.0 ], [ -65.4605, -28.6752, 0.0 ], [ -65.5693, -28.7044, 0.0 ], [ -65.6586, -28.6655, 0.0 ] ] ] ] } },
{ "type": "Feature", "properties": { "circuito": "00042", "codprov": "03", "coddepto": "004" }, "geometry": { "type": "MultiPolygon", "coordinates": [ [ [ [ -65.5494, -28.7827, 0.0 ], [ -65.4846, -28.7295, 0.0 ], [ -65.3452, -28.783, 0.0 ], [ -65.3644, -28.8288, 0.0 ], [ -65.3554, -28.8992, 0.0 ], [ -65.5086, -28.8902, 0.0 ], [ -65.5494, -28.7827, 0.0 ] ] ] ] } },
{ "type": "Feature", "properties": { "circuito": "00043", "codprov": "03", "coddepto": "004" }, "geometry": { "type": "MultiPolygon", "coordinates": [ [ [ [ -65.5086, -28.8902, 0.0 ], [ -65.3554, -28.8992, 0.0 ], [ -65.3444, -28.9436, 0.0 ], [ -65.3641, -28.9779, 0.0 ], [ -65.3673, -29.1143, 0.0 ], [ -65.4825, -29.1221, 0.0 ], [ -65.5294, -28.9899, 0.0 ], [ -65.5086, -28.8902, 0.0 ] ] ] ] } },
{ "type": "Feature", "properties": { "circuito": "00099", "codprov": "03", "coddepto": "012" }, "geometry": { "type": "MultiPolygon", "coordinates": [ [ [ [ -66.2551, -27.4069, 0.0 ], [ -66.1467, -27.238, 0.0 ], [ -66.0246, -27.301, 0.0 ], [ -65.9931, -27.3704, 0.0 ], [ -65.9908, -27.3801, 0.0 ], [ -65.9775, -27.3972, 0.0 ], [ -65.975, -27.4004, 0.0 ], [ -65.9828, -27.4237, 0.0 ], [ -65.9975, -27.4354, 0.0 ], [ -65.9952, -27.4483, 0.0 ], [ -66.006, -27.4585, 0.0 ], [ -66.0071, -27.4683, 0.0 ], [ -66.0159, -27.4843, 0.0 ], [ -66.1996, -27.4758, 0.0 ], [ -66.2551, -27.4069, 0.0 ] ] ] ] } },
{ "type": "Feature", "properties": { "circuito": "00100", "codprov": "03", "coddepto": "012" }, "geometry": { "type": "MultiPolygon", "coordinates": [ [ [ [ -66.1996, -27.4758, 0.0 ], [ -66.0115, -27.6044, 0.0 ], [ -66.0033, -27.6406, 0.0 ], [ -65.9982, -27.6461, 0.0 ], [ -65.9949, -27.6539, 0.0 ], [ -65.9965, -27.6568, 0.0 ], [ -65.9918, -27.699, 0.0 ], [ -66.033, -27.7421, 0.0 ], [ -66.0717, -27.7574, 0.0 ], [ -66.1051, -27.6836, 0.0 ], [ -66.1437, -27.6597, 0.0 ], [ -66.1736, -27.6528, 0.0 ], [ -66.1996, -27.4758, 0.0 ] ] ] ] } },
{ "type": "Feature", "properties": { "circuito": "00101", "codprov": "03", "coddepto": "012" }, "geometry": { "type": "MultiPolygon", "coordinates": [ [ [ [ -66.5006, -27.7282, 0.0 ], [ -66.7466, -27.7721, 0.0 ], [ -66.7738, -27.7598, 0.0 ], [ -66.7713, -27.755, 0.0 ], [ -66.7572, -27.7357, 0.0 ], [ -66.7545, -27.7218, 0.0 ], [ -66.7414, -27.7144, 0.0 ], [ -66.7134, -27.6562, 0.0 ], [ -66.6709, -27.597, 0.0 ], [ -66.6712, -27.5811, 0.0 ], [ -66.6388, -27.5384, 0.0 ], [ -66.6399, -27.5061, 0.0 ], [ -66.6575, -27.4839, 0.0 ], [ -66.6444, -27.458, 0.0 ], [ -66.6358, -27.4178, 0.0 ], [ -66.6183, -27.4025, 0.0 ], [ -66.4666, -27.4092, 0.0 ], [ -66.4528, -27.6455, 0.0 ], [ -66.5006, -27.7282, 0.0 ] ] ] ] } },
{ "type": "Feature", "properties": { "circuito": "00102", "codprov": "03", "coddepto": "012" }, "geometry": { "type": "MultiPolygon", "coordinates": [ [ [ [ -66.4586, -27.5417, 0.0 ], [ -66.3896, -27.5353, 0.0 ], [ -66.3654, -27.5418, 0.0 ], [ -66.3655, -27.5633, 0.0 ], [ -66.3361, -27.5623, 0.0 ], [ -66.3281, -27.5616, 0.0 ], [ -66.3215, -27.5635, 0.0 ], [ -66.3016, -27.5489, 0.0 ], [ -66.2917, -27.5263, 0.0 ], [ -66.1931, -27.5231, 0.0 ], [ -66.1842, -27.582, 0.0 ], [ -66.3026, -27.5899, 0.0 ], [ -66.3102, -27.5894, 0.0 ], [ -66.3136, -27.5928, 0.0 ], [ -66.318, -27.5924, 0.0 ], [ -66.3183, -27.5938, 0.0 ], [ -66.3206, -27.5929, 0.0 ], [ -66.3223, -27.5943, 0.0 ], [ -66.3278, -27.5924, 0.0 ], [ -66.3515, -27.5908, 0.0 ], [ -66.4553, -27.5984, 0.0 ], [ -66.4586, -27.5417, 0.0 ] ] ] ] } },
{ "type": "Feature", "properties": { "circuito": "00103", "codprov": "03", "coddepto": "012" }, "geometry": { "type": "MultiPolygon", "coordinates": [ [ [ [ -66.3654, -27.5418, 0.0 ], [ -66.3404, -27.5178, 0.0 ], [ -66.3308, -27.5269, 0.0 ], [ -66.2917, -27.5263, 0.0 ], [ -66.3016, -27.5489, 0.0 ], [ -66.3215, -27.5635, 0.0 ], [ -66.3305, -27.561, 0.0 ], [ -66.3361, -27.5623, 0.0 ], [ -66.3655, -27.5633, 0.0 ], [ -66.3654, -27.5418, 0.0 ] ] ] ] } },
{ "type": "Feature", "properties": { "circuito": "00104", "codprov": "03", "coddepto": "012" }, "geometry": { "type": "MultiPolygon", "coordinates": [ [ [ [ -66.3654, -27.5418, 0.0 ], [ -66.3896, -27.5353, 0.0 ], [ -66.4586, -27.5417, 0.0 ], [ -66.4666, -27.4092, 0.0 ], [ -66.3502, -27.4125, 0.0 ], [ -66.3436, -27.4841, 0.0 ], [ -66.3404, -27.5178, 0.0 ], [ -66.3654, -27.5418, 0.0 ] ] ] ] } },
{ "type": "Feature", "properties": { "circuito": "00105", "codprov": "03", "coddepto": "012" }, "geometry": { "type": "MultiPolygon", "coordinates": [ [ [ [ -66.3404, -27.5178, 0.0 ], [ -66.3502, -27.4125, 0.0 ], [ -66.2895, -27.4124, 0.0 ], [ -66.2551, -27.4069, 0.0 ], [ -66.1996, -27.4758, 0.0 ], [ -66.1931, -27.5231, 0.0 ], [ -66.3308, -27.5269, 0.0 ], [ -66.3404, -27.5178, 0.0 ] ] ] ] } },
{ "type": "Feature", "properties": { "circuito": "00106", "codprov": "03", "coddepto": "012" }, "geometry": { "type": "MultiPolygon", "coordinates": [ [ [ [ -66.1996, -27.4758, 0.0 ], [ -66.0159, -27.4843, 0.0 ], [ -66.0191, -27.5154, 0.0 ], [ -66.017, -27.5359, 0.0 ], [ -65.9954, -27.5597, 0.0 ], [ -65.9833, -27.5818, 0.0 ], [ -65.996, -27.5863, 0.0 ], [ -66.0115, -27.6044, 0.0 ], [ -66.1996, -27.4758, 0.0 ] ] ] ] } },
{ "type": "Feature", "properties": { "circuito": "00107", "codprov": "03", "coddepto": "012" }, "geometry": { "type": "MultiPolygon", "coordinates": [ [ [ [ -66.3278, -27.5924, 0.0 ], [ -66.3223, -27.5943, 0.0 ], [ -66.3203, -27.5934, 0.0 ], [ -66.3183, -27.5938, 0.0 ], [ -66.318, -27.5924, 0.0 ], [ -66.3136, -27.5928, 0.0 ], [ -66.3102, -27.5894, 0.0 ], [ -66.3026, -27.5899, 0.0 ], [ -66.1842, -27.582, 0.0 ], [ -66.1799, -27.6041, 0.0 ], [ -66.2919, -27.6071, 0.0 ], [ -66.3059, -27.6205, 0.0 ], [ -66.3302, -27.6159, 0.0 ], [ -66.3323, -27.6159, 0.0 ], [ -66.3433, -27.6079, 0.0 ], [ -66.3516, -27.613, 0.0 ], [ -66.3626, -27.6658, 0.0 ], [ -66.4978, -27.7243, 0.0 ], [ -66.4528, -27.6455, 0.0 ], [ -66.4553, -27.5984, 0.0 ], [ -66.3515, -27.5908, 0.0 ], [ -66.3278, -27.5924, 0.0 ] ] ] ] } },
{ "type": "Feature", "properties": { "circuito": "00108", "codprov": "03", "coddepto": "012" }, "geometry": { "type": "MultiPolygon", "coordinates": [ [ [ [ -66.5351, -27.2466, 0.0 ], [ -66.294, -27.1686, 0.0 ], [ -66.1516, -27.2439, 0.0 ], [ -66.2551, -27.4069, 0.0 ], [ -66.2895, -27.4124, 0.0 ], [ -66.6183, -27.4025, 0.0 ], [ -66.6156, -27.3912, 0.0 ], [ -66.6259, -27.3882, 0.0 ], [ -66.6223, -27.3694, 0.0 ], [ -66.6091, -27.3604, 0.0 ], [ -66.605, -27.3443, 0.0 ], [ -66.5649, -27.3074, 0.0 ], [ -66.5582, -27.299, 0.0 ], [ -66.5325, -27.2851, 0.0 ], [ -66.5241, -27.2595, 0.0 ], [ -66.5351, -27.2466, 0.0 ] ] ] ] } },
{ "type": "Feature", "properties": { "circuito": "00109", "codprov": "03", "coddepto": "012" }, "geometry": { "type": "MultiPolygon", "coordinates": [ [ [ [ -66.3433, -27.6079, 0.0 ], [ -66.3323, -27.6159, 0.0 ], [ -66.3302, -27.6159, 0.0 ], [ -66.3059, -27.6205, 0.0 ], [ -66.2919, -27.6071, 0.0 ], [ -66.1799, -27.6041, 0.0 ], [ -66.1758, -27.6747, 0.0 ], [ -66.1676, -27.6777, 0.0 ], [ -66.1644, -27.6881, 0.0 ], [ -66.1799, -27.7014, 0.0 ], [ -66.1642, -27.7361, 0.0 ], [ -66.1786, -27.7689, 0.0 ], [ -66.2596, -27.8084, 0.0 ], [ -66.4023, -27.9003, 0.0 ], [ -66.4952, -28.0324, 0.0 ], [ -66.7491, -28.0177, 0.0 ], [ -66.7466, -27.7721, 0.0 ], [ -66.5006, -27.7282, 0.0 ], [ -66.3626, -27.6658, 0.0 ], [ -66.3516, -27.613, 0.0 ], [ -66.3433, -27.6079, 0.0 ] ] ] ] } },
{ "type": "Feature", "properties": { "circuito": "00126", "codprov": "03", "coddepto": "014" }, "geometry": { "type": "MultiPolygon", "coordinates": [ [ [ [ -68.3892, -26.1369, 0.0 ], [ -68.3929, -26.1228, 0.0 ], [ -68.4828, -25.7009, 0.0 ], [ -68.5803, -25.4321, 0.0 ], [ -68.5255, -25.3749, 0.0 ], [ -68.5465, -25.303, 0.0 ], [ -68.5128, -25.2297, 0.0 ], [ -68.4716, -25.1514, 0.0 ], [ -67.9786, -25.2284, 0.0 ], [ -66.5252, -25.2919, 0.0 ], [ -66.5806, -25.3476, 0.0 ], [ -66.582, -25.3824, 0.0 ], [ -66.5051, -25.3923, 0.0 ], [ -66.5229, -25.5733, 0.0 ], [ -66.5669, -25.603, 0.0 ], [ -66.5879, -25.675, 0.0 ], [ -66.7069, -25.6309, 0.0 ], [ -66.7996, -25.6544, 0.0 ], [ -66.8153, -25.8809, 0.0 ], [ -66.945, -25.9011, 0.0 ], [ -66.9686, -25.9801, 0.0 ], [ -66.9406, -26.0098, 0.0 ], [ -66.989, -26.0886, 0.0 ], [ -67.0229, -26.1527, 0.0 ], [ -67.0365, -26.2537, 0.0 ], [ -68.3892, -26.1369, 0.0 ] ] ] ] } },
{ "type": "Feature", "properties": { "circuito": "00127", "codprov": "03", "coddepto": "014" }, "geometry": { "type": "MultiPolygon", "coordinates": [ [ [ [ -67.5526, -26.9659, 0.0 ], [ -67.7293, -26.8043, 0.0 ], [ -67.8024, -26.7751, 0.0 ], [ -67.9875, -26.7557, 0.0 ], [ -68.1059, -26.7239, 0.0 ], [ -68.224, -26.8171, 0.0 ], [ -68.2912, -26.7727, 0.0 ], [ -68.3721, -26.8068, 0.0 ], [ -68.6028, -26.5102, 0.0 ], [ -68.5588, -26.2925, 0.0 ], [ -68.3757, -26.179, 0.0 ], [ -68.3892, -26.1369, 0.0 ], [ -67.0356, -26.259, 0.0 ], [ -67.074, -26.4433, 0.0 ], [ -67.1074, -26.5561, 0.0 ], [ -67.1787, -26.6392, 0.0 ], [ -67.2883, -26.7066, 0.0 ], [ -67.4588, -26.7251, 0.0 ], [ -67.5234, -26.7606, 0.0 ], [ -67.5319, -26.8542, 0.0 ], [ -67.5526, -26.9659, 0.0 ] ] ] ] } },
{ "type": "Feature", "properties": { "circuito": "00110", "codprov": "03", "coddepto": "013" }, "geometry": { "type": "MultiPolygon", "coordinates": [ [ [ [ -66.8081, -27.3705, 0.0 ], [ -66.8133, -27.3686, 0.0 ], [ -66.8032, -27.2698, 0.0 ], [ -66.722, -27.2474, 0.0 ], [ -66.5351, -27.2466, 0.0 ], [ -66.5241, -27.2595, 0.0 ], [ -66.5325, -27.2851, 0.0 ], [ -66.605, -27.3443, 0.0 ], [ -66.6091, -27.3604, 0.0 ], [ -66.62, -27.3652, 0.0 ], [ -66.6259, -27.3882, 0.0 ], [ -66.6146, -27.3978, 0.0 ], [ -66.6358, -27.4178, 0.0 ], [ -66.6575, -27.4839, 0.0 ], [ -66.6403, -27.5086, 0.0 ], [ -66.8136, -27.5116, 0.0 ], [ -66.8081, -27.3705, 0.0 ] ] ] ] } },
{ "type": "Feature", "properties": { "circuito": "00111", "codprov": "03", "coddepto": "013" }, "geometry": { "type": "MultiPolygon", "coordinates": [ [ [ [ -67.2395, -26.9847, 0.0 ], [ -66.8902, -27.054, 0.0 ], [ -66.8943, -27.1274, 0.0 ], [ -66.8648, -27.1308, 0.0 ], [ -66.9005, -27.198, 0.0 ], [ -66.9282, -27.1807, 0.0 ], [ -66.978, -27.1767, 0.0 ], [ -67.3027, -27.1602, 0.0 ], [ -67.3053, -27.1142, 0.0 ], [ -67.3057, -27.0805, 0.0 ], [ -67.2556, -27.0113, 0.0 ], [ -67.2395, -26.9847, 0.0 ] ] ] ] } },
{ "type": "Feature", "properties": { "circuito": "00112", "codprov": "03", "coddepto": "013" }, "geometry": { "type": "MultiPolygon", "coordinates": [ [ [ [ -66.8902, -27.054, 0.0 ], [ -67.2395, -26.9847, 0.0 ], [ -67.2299, -26.8918, 0.0 ], [ -67.2094, -26.8624, 0.0 ], [ -67.2053, -26.7932, 0.0 ], [ -67.2794, -26.7138, 0.0 ], [ -66.8174, -26.7368, 0.0 ], [ -66.8284, -26.9843, 0.0 ], [ -66.8902, -27.054, 0.0 ] ] ] ] } },
{ "type": "Feature", "properties": { "circuito": "00113", "codprov": "03", "coddepto": "013" }, "geometry": { "type": "MultiPolygon", "coordinates": [ [ [ [ -66.9525, -27.2618, 0.0 ], [ -67.0349, -27.2545, 0.0 ], [ -67.3032, -27.2517, 0.0 ], [ -67.3027, -27.1602, 0.0 ], [ -66.978, -27.1767, 0.0 ], [ -66.9732, -27.184, 0.0 ], [ -66.9722, -27.2464, 0.0 ], [ -66.9525, -27.2618, 0.0 ] ] ] ] } },
{ "type": "Feature", "properties": { "circuito": "00114", "codprov": "03", "coddepto": "013" }, "geometry": { "type": "MultiPolygon", "coordinates": [ [ [ [ -66.722, -27.2474, 0.0 ], [ -66.8032, -27.2698, 0.0 ], [ -66.8695, -27.2704, 0.0 ], [ -66.8702, -27.2207, 0.0 ], [ -66.9005, -27.198, 0.0 ], [ -66.8648, -27.1308, 0.0 ], [ -66.7515, -27.1827, 0.0 ], [ -66.722, -27.2474, 0.0 ] ] ] ] } },
{ "type": "Feature", "properties": { "circuito": "00115", "codprov": "03", "coddepto": "013" }, "geometry": { "type": "MultiPolygon", "coordinates": [ [ [ [ -67.0492, -27.4175, 0.0 ], [ -67.0484, -27.3396, 0.0 ], [ -66.9592, -27.3175, 0.0 ], [ -66.8081, -27.3705, 0.0 ], [ -66.8136, -27.5116, 0.0 ], [ -66.9695, -27.5125, 0.0 ], [ -67.0121, -27.4973, 0.0 ], [ -67.0574, -27.4997, 0.0 ], [ -67.0492, -27.4175, 0.0 ] ] ] ] } },
{ "type": "Feature", "properties": { "circuito": "00116", "codprov": "03", "coddepto": "013" }, "geometry": { "type": "MultiPolygon", "coordinates": [ [ [ [ -67.2794, -26.7138, 0.0 ], [ -67.2878, -26.7042, 0.0 ], [ -67.1787, -26.6392, 0.0 ], [ -67.1121, -26.5644, 0.0 ], [ -67.0365, -26.2537, 0.0 ], [ -67.0102, -26.1352, 0.0 ], [ -66.9382, -26.0036, 0.0 ], [ -66.9618, -25.9852, 0.0 ], [ -66.945, -25.9011, 0.0 ], [ -66.8153, -25.8809, 0.0 ], [ -66.6099, -26.0643, 0.0 ], [ -66.5193, -26.2714, 0.0 ], [ -66.5201, -26.4037, 0.0 ], [ -66.605, -26.625, 0.0 ], [ -66.5769, -26.6718, 0.0 ], [ -66.6058, -26.7472, 0.0 ], [ -67.2794, -26.7138, 0.0 ] ] ] ] } },
{ "type": "Feature", "properties": { "circuito": "00117", "codprov": "03", "coddepto": "013" }, "geometry": { "type": "MultiPolygon", "coordinates": [ [ [ [ -67.0725, -27.6098, 0.0 ], [ -67.0574, -27.4997, 0.0 ], [ -67.0121, -27.4973, 0.0 ], [ -66.9695, -27.5125, 0.0 ], [ -66.6406, -27.5133, 0.0 ], [ -66.6388, -27.5384, 0.0 ], [ -66.6712, -27.5811, 0.0 ], [ -66.6709, -27.597, 0.0 ], [ -67.0725, -27.6098, 0.0 ] ] ] ] } },
{ "type": "Feature", "properties": { "circuito": "00118", "codprov": "03", "coddepto": "013" }, "geometry": { "type": "MultiPolygon", "coordinates": [ [ [ [ -66.8284, -26.9843, 0.0 ], [ -66.8174, -26.7368, 0.0 ], [ -66.6058, -26.7472, 0.0 ], [ -66.6285, -26.7827, 0.0 ], [ -66.619, -26.829, 0.0 ], [ -66.5846, -26.9074, 0.0 ], [ -66.5915, -26.9647, 0.0 ], [ -66.6226, -27.0183, 0.0 ], [ -66.6485, -27.04, 0.0 ], [ -66.6529, -27.0665, 0.0 ], [ -66.7165, -27.0999, 0.0 ], [ -66.8284, -26.9843, 0.0 ] ] ] ] } },
{ "type": "Feature", "properties": { "circuito": "00119", "codprov": "03", "coddepto": "013" }, "geometry": { "type": "MultiPolygon", "coordinates": [ [ [ [ -67.0574, -27.4997, 0.0 ], [ -67.0725, -27.6098, 0.0 ], [ -67.1102, -27.6476, 0.0 ], [ -67.216, -27.6445, 0.0 ], [ -67.302, -27.7088, 0.0 ], [ -67.3754, -27.6742, 0.0 ], [ -67.3442, -27.6196, 0.0 ], [ -67.3502, -27.6141, 0.0 ], [ -67.3383, -27.6064, 0.0 ], [ -67.3367, -27.5879, 0.0 ], [ -67.3298, -27.5811, 0.0 ], [ -67.3343, -27.5638, 0.0 ], [ -67.3214, -27.5555, 0.0 ], [ -67.3134, -27.5313, 0.0 ], [ -67.2578, -27.4565, 0.0 ], [ -67.2486, -27.4504, 0.0 ], [ -67.244, -27.44, 0.0 ], [ -67.3039, -27.4151, 0.0 ], [ -67.2992, -27.3126, 0.0 ], [ -67.1905, -27.3275, 0.0 ], [ -67.0484, -27.3396, 0.0 ], [ -67.0492, -27.4175, 0.0 ], [ -67.0574, -27.4997, 0.0 ] ] ] ] } },
{ "type": "Feature", "properties": { "circuito": "00120", "codprov": "03", "coddepto": "013" }, "geometry": { "type": "MultiPolygon", "coordinates": [ [ [ [ -67.079, -27.6977, 0.0 ], [ -67.0385, -27.8332, 0.0 ], [ -67.0275, -27.8436, 0.0 ], [ -66.9842, -27.9546, 0.0 ], [ -66.9739, -28.0183, 0.0 ], [ -66.9966, -28.0207, 0.0 ], [ -67.335, -28.0296, 0.0 ], [ -67.3533, -28.0384, 0.0 ], [ -67.3624, -28.0328, 0.0 ], [ -67.3588, -28.0277, 0.0 ], [ -67.3619, -28.0219, 0.0 ], [ -67.3608, -28.0171, 0.0 ], [ -67.3533, -28.0107, 0.0 ], [ -67.3588, -27.805, 0.0 ], [ -67.302, -27.7088, 0.0 ], [ -67.216, -27.6445, 0.0 ], [ -67.1102, -27.6476, 0.0 ], [ -67.0869, -27.6765, 0.0 ], [ -67.079, -27.6977, 0.0 ] ] ] ] } },
{ "type": "Feature", "properties": { "circuito": "00121", "codprov": "03", "coddepto": "013" }, "geometry": { "type": "MultiPolygon", "coordinates": [ [ [ [ -66.8181, -27.1509, 0.0 ], [ -66.6485, -27.0703, 0.0 ], [ -66.6506, -27.0799, 0.0 ], [ -66.6317, -27.0957, 0.0 ], [ -66.612, -27.1539, 0.0 ], [ -66.5548, -27.1922, 0.0 ], [ -66.5562, -27.2179, 0.0 ], [ -66.5351, -27.2466, 0.0 ], [ -66.722, -27.2474, 0.0 ], [ -66.7515, -27.1827, 0.0 ], [ -66.8181, -27.1509, 0.0 ] ] ] ] } },
{ "type": "Feature", "properties": { "circuito": "00122", "codprov": "03", "coddepto": "013" }, "geometry": { "type": "MultiPolygon", "coordinates": [ [ [ [ -66.8695, -27.2704, 0.0 ], [ -66.9525, -27.2618, 0.0 ], [ -66.9722, -27.2464, 0.0 ], [ -66.9728, -27.2085, 0.0 ], [ -66.9732, -27.184, 0.0 ], [ -66.978, -27.1767, 0.0 ], [ -66.9282, -27.1807, 0.0 ], [ -66.8702, -27.2207, 0.0 ], [ -66.8695, -27.2704, 0.0 ] ] ] ] } },
{ "type": "Feature", "properties": { "circuito": "00123", "codprov": "03", "coddepto": "013" }, "geometry": { "type": "MultiPolygon", "coordinates": [ [ [ [ -66.899, -27.2668, 0.0 ], [ -66.8695, -27.2704, 0.0 ], [ -66.8032, -27.2698, 0.0 ], [ -66.8133, -27.3686, 0.0 ], [ -66.9591, -27.3156, 0.0 ], [ -67.0484, -27.3396, 0.0 ], [ -67.1905, -27.3275, 0.0 ], [ -67.2992, -27.3126, 0.0 ], [ -67.303, -27.313, 0.0 ], [ -67.3033, -27.2823, 0.0 ], [ -67.3025, -27.2628, 0.0 ], [ -67.3032, -27.2517, 0.0 ], [ -67.1325, -27.2533, 0.0 ], [ -67.0349, -27.2545, 0.0 ], [ -66.899, -27.2668, 0.0 ] ] ] ] } },
{ "type": "Feature", "properties": { "circuito": "00124", "codprov": "03", "coddepto": "013" }, "geometry": { "type": "MultiPolygon", "coordinates": [ [ [ [ -67.1102, -27.6476, 0.0 ], [ -67.0725, -27.6098, 0.0 ], [ -66.6709, -27.597, 0.0 ], [ -66.7134, -27.6562, 0.0 ], [ -66.7414, -27.7144, 0.0 ], [ -66.7511, -27.7184, 0.0 ], [ -66.7572, -27.7357, 0.0 ], [ -66.7713, -27.755, 0.0 ], [ -66.7749, -27.7621, 0.0 ], [ -66.7508, -27.7725, 0.0 ], [ -66.7491, -28.0177, 0.0 ], [ -66.9739, -28.0183, 0.0 ], [ -66.9842, -27.9546, 0.0 ], [ -67.0275, -27.8436, 0.0 ], [ -67.0385, -27.8332, 0.0 ], [ -67.0869, -27.6765, 0.0 ], [ -67.1102, -27.6476, 0.0 ] ] ] ] } },
{ "type": "Feature", "properties": { "circuito": "00125", "codprov": "03", "coddepto": "013" }, "geometry": { "type": "MultiPolygon", "coordinates": [ [ [ [ -66.7165, -27.0999, 0.0 ], [ -66.8181, -27.1509, 0.0 ], [ -66.8648, -27.1308, 0.0 ], [ -66.8943, -27.1274, 0.0 ], [ -66.8902, -27.054, 0.0 ], [ -66.8284, -26.9843, 0.0 ], [ -66.7165, -27.0999, 0.0 ] ] ] ] } },
{ "type": "Feature", "properties": { "circuito": "00010", "codprov": "03", "coddepto": "002" }, "geometry": { "type": "MultiPolygon", "coordinates": [ [ [ [ -66.1247, -28.7933, 0.0 ], [ -66.0991, -28.7692, 0.0 ], [ -66.089, -28.7599, 0.0 ], [ -66.0458, -28.7729, 0.0 ], [ -65.9971, -28.7506, 0.0 ], [ -65.9904, -28.7648, 0.0 ], [ -65.9902, -28.7764, 0.0 ], [ -65.9391, -28.8311, 0.0 ], [ -66.0192, -28.8885, 0.0 ], [ -66.1247, -28.7933, 0.0 ] ] ] ] } },
{ "type": "Feature", "properties": { "circuito": "00011", "codprov": "03", "coddepto": "002" }, "geometry": { "type": "MultiPolygon", "coordinates": [ [ [ [ -66.2029, -28.6658, 0.0 ], [ -66.1733, -28.6169, 0.0 ], [ -66.1445, -28.5846, 0.0 ], [ -66.1399, -28.5618, 0.0 ], [ -66.128, -28.5392, 0.0 ], [ -66.1053, -28.5225, 0.0 ], [ -66.1057, -28.5181, 0.0 ], [ -66.0718, -28.5127, 0.0 ], [ -66.0612, -28.5023, 0.0 ], [ -65.9708, -28.5491, 0.0 ], [ -66.031, -28.6446, 0.0 ], [ -65.9632, -28.6727, 0.0 ], [ -66.0628, -28.7356, 0.0 ], [ -66.2029, -28.6658, 0.0 ] ] ] ] } },
{ "type": "Feature", "properties": { "circuito": "00012", "codprov": "03", "coddepto": "002" }, "geometry": { "type": "MultiPolygon", "coordinates": [ [ [ [ -65.809, -28.6319, 0.0 ], [ -65.8385, -28.6244, 0.0 ], [ -65.8546, -28.6161, 0.0 ], [ -65.8658, -28.6033, 0.0 ], [ -65.8728, -28.6033, 0.0 ], [ -65.8854, -28.5961, 0.0 ], [ -66.0612, -28.5023, 0.0 ], [ -66.048, -28.4904, 0.0 ], [ -65.9092, -28.4922, 0.0 ], [ -65.8334, -28.5498, 0.0 ], [ -65.8333, -28.5541, 0.0 ], [ -65.8296, -28.5542, 0.0 ], [ -65.8183, -28.5664, 0.0 ], [ -65.7975, -28.5718, 0.0 ], [ -65.7915, -28.5771, 0.0 ], [ -65.7971, -28.5842, 0.0 ], [ -65.7961, -28.6029, 0.0 ], [ -65.8014, -28.6085, 0.0 ], [ -65.8059, -28.6102, 0.0 ], [ -65.8088, -28.6116, 0.0 ], [ -65.8061, -28.6201, 0.0 ], [ -65.8072, -28.6305, 0.0 ], [ -65.809, -28.6319, 0.0 ] ] ] ] } },
{ "type": "Feature", "properties": { "circuito": "00013", "codprov": "03", "coddepto": "002" }, "geometry": { "type": "MultiPolygon", "coordinates": [ [ [ [ -66.2782, -28.7397, 0.0 ], [ -66.1215, -28.7959, 0.0 ], [ -66.0192, -28.8885, 0.0 ], [ -66.1016, -28.9426, 0.0 ], [ -66.2224, -28.8825, 0.0 ], [ -66.2375, -28.8952, 0.0 ], [ -66.2911, -28.8934, 0.0 ], [ -66.4003, -28.8609, 0.0 ], [ -66.4044, -28.8296, 0.0 ], [ -66.3344, -28.7494, 0.0 ], [ -66.2782, -28.7397, 0.0 ] ] ] ] } },
{ "type": "Feature", "properties": { "circuito": "00014", "codprov": "03", "coddepto": "002" }, "geometry": { "type": "MultiPolygon", "coordinates": [ [ [ [ -66.0211, -28.7096, 0.0 ], [ -65.9632, -28.6727, 0.0 ], [ -65.8355, -28.7242, 0.0 ], [ -65.8504, -28.7701, 0.0 ], [ -65.9391, -28.8311, 0.0 ], [ -65.9902, -28.7764, 0.0 ], [ -65.989, -28.7627, 0.0 ], [ -66.0211, -28.7096, 0.0 ] ] ] ] } },
{ "type": "Feature", "properties": { "circuito": "00015", "codprov": "03", "coddepto": "002" }, "geometry": { "type": "MultiPolygon", "coordinates": [ [ [ [ -66.048, -28.4904, 0.0 ], [ -66.0446, -28.4839, 0.0 ], [ -66.0357, -28.4748, 0.0 ], [ -66.0305, -28.4657, 0.0 ], [ -66.0294, -28.4563, 0.0 ], [ -66.0332, -28.4486, 0.0 ], [ -66.0421, -28.4398, 0.0 ], [ -66.0425, -28.4258, 0.0 ], [ -66.0396, -28.4115, 0.0 ], [ -66.0255, -28.4037, 0.0 ], [ -66.0201, -28.3979, 0.0 ], [ -66.0038, -28.3914, 0.0 ], [ -65.9999, -28.3823, 0.0 ], [ -65.9848, -28.3814, 0.0 ], [ -65.9584, -28.3656, 0.0 ], [ -65.9594, -28.3804, 0.0 ], [ -65.9586, -28.3923, 0.0 ], [ -65.9549, -28.3976, 0.0 ], [ -65.9543, -28.4011, 0.0 ], [ -65.957, -28.4094, 0.0 ], [ -65.9561, -28.4253, 0.0 ], [ -65.9487, -28.4382, 0.0 ], [ -65.9481, -28.4412, 0.0 ], [ -65.944, -28.4522, 0.0 ], [ -65.9264, -28.4506, 0.0 ], [ -65.9187, -28.4672, 0.0 ], [ -65.9129, -28.4736, 0.0 ], [ -65.9123, -28.4788, 0.0 ], [ -65.9102, -28.4821, 0.0 ], [ -65.9092, -28.4922, 0.0 ], [ -66.048, -28.4904, 0.0 ] ] ] ] } },
{ "type": "Feature", "properties": { "circuito": "00016", "codprov": "03", "coddepto": "002" }, "geometry": { "type": "MultiPolygon", "coordinates": [ [ [ [ -65.8334, -28.7238, 0.0 ], [ -66.031, -28.6446, 0.0 ], [ -65.9729, -28.5502, 0.0 ], [ -65.8799, -28.5997, 0.0 ], [ -65.8728, -28.6033, 0.0 ], [ -65.8658, -28.6033, 0.0 ], [ -65.8572, -28.618, 0.0 ], [ -65.809, -28.6319, 0.0 ], [ -65.8154, -28.6518, 0.0 ], [ -65.8123, -28.6675, 0.0 ], [ -65.8042, -28.6751, 0.0 ], [ -65.802, -28.6899, 0.0 ], [ -65.8057, -28.6993, 0.0 ], [ -65.8149, -28.7083, 0.0 ], [ -65.8155, -28.7161, 0.0 ], [ -65.8206, -28.7206, 0.0 ], [ -65.8334, -28.7238, 0.0 ] ] ] ] } },
{ "type": "Feature", "properties": { "circuito": "00017", "codprov": "03", "coddepto": "002" }, "geometry": { "type": "MultiPolygon", "coordinates": [ [ [ [ -65.8504, -28.7701, 0.0 ], [ -65.7253, -28.7719, 0.0 ], [ -65.6778, -28.8029, 0.0 ], [ -65.6729, -28.8236, 0.0 ], [ -65.6781, -28.8731, 0.0 ], [ -65.6604, -28.9738, 0.0 ], [ -65.6473, -29.0047, 0.0 ], [ -66.0126, -29.0203, 0.0 ], [ -66.0952, -28.9423, 0.0 ], [ -65.8504, -28.7701, 0.0 ] ] ] ] } },
{ "type": "Feature", "properties": { "circuito": "00018", "codprov": "03", "coddepto": "002" }, "geometry": { "type": "MultiPolygon", "coordinates": [ [ [ [ -65.7297, -29.3321, 0.0 ], [ -65.7538, -29.2732, 0.0 ], [ -65.83, -29.2466, 0.0 ], [ -65.8297, -29.1753, 0.0 ], [ -66.0126, -29.0203, 0.0 ], [ -65.6473, -29.0047, 0.0 ], [ -65.5951, -29.1296, 0.0 ], [ -65.6135, -29.2509, 0.0 ], [ -65.6002, -29.3022, 0.0 ], [ -65.7297, -29.3321, 0.0 ] ] ] ] } },
{ "type": "Feature", "properties": { "circuito": "00019", "codprov": "03", "coddepto": "002" }, "geometry": { "type": "MultiPolygon", "coordinates": [ [ [ [ -66.0628, -28.7356, 0.0 ], [ -66.1261, -28.7941, 0.0 ], [ -66.2782, -28.7397, 0.0 ], [ -66.2598, -28.7087, 0.0 ], [ -66.2413, -28.713, 0.0 ], [ -66.2029, -28.6658, 0.0 ], [ -66.0628, -28.7356, 0.0 ] ] ] ] } },
{ "type": "Feature", "properties": { "circuito": "00020", "codprov": "03", "coddepto": "002" }, "geometry": { "type": "MultiPolygon", "coordinates": [ [ [ [ -65.5807, -29.6984, 0.0 ], [ -65.7297, -29.3321, 0.0 ], [ -65.6002, -29.3022, 0.0 ], [ -65.6022, -29.3365, 0.0 ], [ -65.5545, -29.4211, 0.0 ], [ -65.5511, -29.4651, 0.0 ], [ -65.5526, -29.5027, 0.0 ], [ -65.5731, -29.5283, 0.0 ], [ -65.5461, -29.6251, 0.0 ], [ -65.5497, -29.631, 0.0 ], [ -65.5455, -29.6372, 0.0 ], [ -65.5807, -29.6984, 0.0 ] ] ] ] } },
{ "type": "Feature", "properties": { "circuito": "00021", "codprov": "03", "coddepto": "002" }, "geometry": { "type": "MultiPolygon", "coordinates": [ [ [ [ -66.0458, -28.7729, 0.0 ], [ -66.0883, -28.7601, 0.0 ], [ -66.0628, -28.7356, 0.0 ], [ -66.0211, -28.7096, 0.0 ], [ -65.9971, -28.7496, 0.0 ], [ -66.0458, -28.7729, 0.0 ] ] ] ] } },
{ "type": "Feature", "properties": { "circuito": "00001", "codprov": "03", "coddepto": "001" }, "geometry": { "type": "MultiPolygon", "coordinates": [ [ [ [ -65.7866, -28.4765, 0.0 ], [ -65.7869, -28.4714, 0.0 ], [ -65.787, -28.4703, 0.0 ], [ -65.7865, -28.4701, 0.0 ], [ -65.7865, -28.4693, 0.0 ], [ -65.7865, -28.4688, 0.0 ], [ -65.7858, -28.4687, 0.0 ], [ -65.7797, -28.4683, 0.0 ], [ -65.7795, -28.4761, 0.0 ], [ -65.7866, -28.4765, 0.0 ] ] ] ] } },
{ "type": "Feature", "properties": { "circuito": "00002", "codprov": "03", "coddepto": "001" }, "geometry": { "type": "MultiPolygon", "coordinates": [ [ [ [ -65.7867, -28.4751, 0.0 ], [ -65.7866, -28.4765, 0.0 ], [ -65.8185, -28.4778, 0.0 ], [ -65.9102, -28.4821, 0.0 ], [ -65.9123, -28.4788, 0.0 ], [ -65.9129, -28.4736, 0.0 ], [ -65.9141, -28.4712, 0.0 ], [ -65.8225, -28.4677, 0.0 ], [ -65.8206, -28.4684, 0.0 ], [ -65.8193, -28.4687, 0.0 ], [ -65.8186, -28.469, 0.0 ], [ -65.8153, -28.4677, 0.0 ], [ -65.8126, -28.468, 0.0 ], [ -65.8093, -28.4677, 0.0 ], [ -65.8011, -28.4671, 0.0 ], [ -65.7871, -28.4663, 0.0 ], [ -65.7869, -28.4688, 0.0 ], [ -65.7865, -28.4688, 0.0 ], [ -65.7865, -28.4701, 0.0 ], [ -65.787, -28.4703, 0.0 ], [ -65.7867, -28.4751, 0.0 ] ] ] ] } },
{ "type": "Feature", "properties": { "circuito": "00004", "codprov": "03", "coddepto": "001" }, "geometry": { "type": "MultiPolygon", "coordinates": [ [ [ [ -65.7794, -28.4799, 0.0 ], [ -65.7796, -28.4734, 0.0 ], [ -65.7797, -28.4683, 0.0 ], [ -65.7726, -28.4677, 0.0 ], [ -65.772, -28.4799, 0.0 ], [ -65.7736, -28.4798, 0.0 ], [ -65.7753, -28.4798, 0.0 ], [ -65.7765, -28.4796, 0.0 ], [ -65.7771, -28.4798, 0.0 ], [ -65.7794, -28.4799, 0.0 ] ] ] ] } },
{ "type": "Feature", "properties": { "circuito": "00005", "codprov": "03", "coddepto": "001" }, "geometry": { "type": "MultiPolygon", "coordinates": [ [ [ [ -65.7726, -28.4677, 0.0 ], [ -65.7681, -28.4674, 0.0 ], [ -65.7674, -28.47, 0.0 ], [ -65.7658, -28.4716, 0.0 ], [ -65.7647, -28.4739, 0.0 ], [ -65.7631, -28.4739, 0.0 ], [ -65.759, -28.4813, 0.0 ], [ -65.7636, -28.4848, 0.0 ], [ -65.7646, -28.4878, 0.0 ], [ -65.7655, -28.489, 0.0 ], [ -65.7683, -28.4886, 0.0 ], [ -65.7705, -28.489, 0.0 ], [ -65.7724, -28.4929, 0.0 ], [ -65.7751, -28.4962, 0.0 ], [ -65.7783, -28.5019, 0.0 ], [ -65.7786, -28.5053, 0.0 ], [ -65.7818, -28.515, 0.0 ], [ -65.7824, -28.5212, 0.0 ], [ -65.784, -28.5253, 0.0 ], [ -65.7859, -28.5382, 0.0 ], [ -65.7891, -28.5395, 0.0 ], [ -65.7898, -28.5485, 0.0 ], [ -65.7858, -28.551, 0.0 ], [ -65.7846, -28.553, 0.0 ], [ -65.7855, -28.5573, 0.0 ], [ -65.7901, -28.5592, 0.0 ], [ -65.7903, -28.5669, 0.0 ], [ -65.7934, -28.5696, 0.0 ], [ -65.7975, -28.5701, 0.0 ], [ -65.7975, -28.5718, 0.0 ], [ -65.8183, -28.5664, 0.0 ], [ -65.8198, -28.564, 0.0 ], [ -65.8245, -28.5601, 0.0 ], [ -65.8296, -28.5542, 0.0 ], [ -65.8333, -28.5541, 0.0 ], [ -65.8334, -28.5498, 0.0 ], [ -65.8414, -28.5438, 0.0 ], [ -65.7991, -28.5136, 0.0 ], [ -65.7885, -28.5018, 0.0 ], [ -65.7828, -28.4886, 0.0 ], [ -65.7825, -28.4824, 0.0 ], [ -65.7795, -28.4825, 0.0 ], [ -65.7794, -28.4799, 0.0 ], [ -65.7771, -28.4798, 0.0 ], [ -65.7765, -28.4796, 0.0 ], [ -65.7753, -28.4798, 0.0 ], [ -65.772, -28.4799, 0.0 ], [ -65.7726, -28.4677, 0.0 ] ] ] ] } },
{ "type": "Feature", "properties": { "circuito": "00006", "codprov": "03", "coddepto": "001" }, "geometry": { "type": "MultiPolygon", "coordinates": [ [ [ [ -65.7798, -28.4683, 0.0 ], [ -65.78, -28.4581, 0.0 ], [ -65.7801, -28.4543, 0.0 ], [ -65.7801, -28.4518, 0.0 ], [ -65.7803, -28.4513, 0.0 ], [ -65.7802, -28.4507, 0.0 ], [ -65.7798, -28.4498, 0.0 ], [ -65.7765, -28.4481, 0.0 ], [ -65.7741, -28.4518, 0.0 ], [ -65.7716, -28.4518, 0.0 ], [ -65.7713, -28.4579, 0.0 ], [ -65.77, -28.4575, 0.0 ], [ -65.7698, -28.4645, 0.0 ], [ -65.7691, -28.4649, 0.0 ], [ -65.7684, -28.4661, 0.0 ], [ -65.7681, -28.4674, 0.0 ], [ -65.7797, -28.4683, 0.0 ], [ -65.7798, -28.4683, 0.0 ] ] ] ] } },
{ "type": "Feature", "properties": { "circuito": "00007", "codprov": "03", "coddepto": "001" }, "geometry": { "type": "MultiPolygon", "coordinates": [ [ [ [ -65.7798, -28.4498, 0.0 ], [ -65.7802, -28.4507, 0.0 ], [ -65.7803, -28.4513, 0.0 ], [ -65.7801, -28.4518, 0.0 ], [ -65.7797, -28.4683, 0.0 ], [ -65.7869, -28.4688, 0.0 ], [ -65.7871, -28.4663, 0.0 ], [ -65.8126, -28.468, 0.0 ], [ -65.8153, -28.4677, 0.0 ], [ -65.8186, -28.469, 0.0 ], [ -65.8225, -28.4677, 0.0 ], [ -65.9146, -28.4716, 0.0 ], [ -65.9187, -28.4672, 0.0 ], [ -65.9264, -28.4506, 0.0 ], [ -65.944, -28.4522, 0.0 ], [ -65.9487, -28.4382, 0.0 ], [ -65.9561, -28.4253, 0.0 ], [ -65.957, -28.4094, 0.0 ], [ -65.9543, -28.4011, 0.0 ], [ -65.9586, -28.3923, 0.0 ], [ -65.9584, -28.3656, 0.0 ], [ -65.9513, -28.3628, 0.0 ], [ -65.9486, -28.361, 0.0 ], [ -65.9445, -28.3608, 0.0 ], [ -65.9394, -28.3578, 0.0 ], [ -65.9335, -28.3572, 0.0 ], [ -65.9312, -28.3536, 0.0 ], [ -65.9069, -28.3443, 0.0 ], [ -65.8995, -28.3338, 0.0 ], [ -65.8962, -28.3312, 0.0 ], [ -65.8919, -28.3358, 0.0 ], [ -65.8858, -28.3446, 0.0 ], [ -65.8826, -28.3478, 0.0 ], [ -65.8803, -28.3541, 0.0 ], [ -65.878, -28.3582, 0.0 ], [ -65.8748, -28.359, 0.0 ], [ -65.8723, -28.357, 0.0 ], [ -65.873, -28.3524, 0.0 ], [ -65.8702, -28.3472, 0.0 ], [ -65.8693, -28.3425, 0.0 ], [ -65.8647, -28.3386, 0.0 ], [ -65.8643, -28.3347, 0.0 ], [ -65.8572, -28.3309, 0.0 ], [ -65.8537, -28.3269, 0.0 ], [ -65.8528, -28.3222, 0.0 ], [ -65.8449, -28.3207, 0.0 ], [ -65.8433, -28.318, 0.0 ], [ -65.8448, -28.315, 0.0 ], [ -65.8469, -28.3083, 0.0 ], [ -65.8453, -28.3049, 0.0 ], [ -65.8454, -28.2855, 0.0 ], [ -65.842, -28.277, 0.0 ], [ -65.8281, -28.2666, 0.0 ], [ -65.8249, -28.2681, 0.0 ], [ -65.8188, -28.2773, 0.0 ], [ -65.8149, -28.2971, 0.0 ], [ -65.8089, -28.3131, 0.0 ], [ -65.7914, -28.3436, 0.0 ], [ -65.7853, -28.3468, 0.0 ], [ -65.7847, -28.3574, 0.0 ], [ -65.7824, -28.3578, 0.0 ], [ -65.7804, -28.3611, 0.0 ], [ -65.7816, -28.3633, 0.0 ], [ -65.781, -28.3666, 0.0 ], [ -65.7781, -28.3719, 0.0 ], [ -65.7703, -28.3791, 0.0 ], [ -65.7704, -28.3887, 0.0 ], [ -65.7676, -28.3957, 0.0 ], [ -65.7657, -28.4178, 0.0 ], [ -65.7689, -28.4359, 0.0 ], [ -65.7705, -28.4381, 0.0 ], [ -65.7805, -28.449, 0.0 ], [ -65.7798, -28.4498, 0.0 ] ] ] ] } },
{ "type": "Feature", "properties": { "circuito": "00008", "codprov": "03", "coddepto": "001" }, "geometry": { "type": "MultiPolygon", "coordinates": [ [ [ [ -65.759, -28.4813, 0.0 ], [ -65.7631, -28.4739, 0.0 ], [ -65.7647, -28.4739, 0.0 ], [ -65.7658, -28.4716, 0.0 ], [ -65.7674, -28.47, 0.0 ], [ -65.7684, -28.4661, 0.0 ], [ -65.7691, -28.4649, 0.0 ], [ -65.7698, -28.4645, 0.0 ], [ -65.7698, -28.4574, 0.0 ], [ -65.7713, -28.4579, 0.0 ], [ -65.7718, -28.4518, 0.0 ], [ -65.7741, -28.4518, 0.0 ], [ -65.7765, -28.4481, 0.0 ], [ -65.7798, -28.4498, 0.0 ], [ -65.7803, -28.4489, 0.0 ], [ -65.7705, -28.4381, 0.0 ], [ -65.7679, -28.44, 0.0 ], [ -65.7622, -28.4422, 0.0 ], [ -65.7467, -28.4486, 0.0 ], [ -65.7463, -28.4537, 0.0 ], [ -65.7444, -28.4556, 0.0 ], [ -65.7389, -28.4582, 0.0 ], [ -65.7386, -28.4598, 0.0 ], [ -65.7379, -28.4615, 0.0 ], [ -65.7379, -28.4631, 0.0 ], [ -65.738, -28.4646, 0.0 ], [ -65.7391, -28.4675, 0.0 ], [ -65.7406, -28.4703, 0.0 ], [ -65.7438, -28.4708, 0.0 ], [ -65.746, -28.473, 0.0 ], [ -65.748, -28.4734, 0.0 ], [ -65.7507, -28.4747, 0.0 ], [ -65.7527, -28.4768, 0.0 ], [ -65.7541, -28.4789, 0.0 ], [ -65.7565, -28.4793, 0.0 ], [ -65.759, -28.4813, 0.0 ] ] ] ] } },
{ "type": "Feature", "properties": { "circuito": "00009", "codprov": "03", "coddepto": "001" }, "geometry": { "type": "MultiPolygon", "coordinates": [ [ [ [ -65.7705, -28.4381, 0.0 ], [ -65.7688, -28.4362, 0.0 ], [ -65.7657, -28.4178, 0.0 ], [ -65.7676, -28.3957, 0.0 ], [ -65.7549, -28.3933, 0.0 ], [ -65.747, -28.394, 0.0 ], [ -65.7152, -28.3947, 0.0 ], [ -65.7186, -28.4113, 0.0 ], [ -65.7215, -28.4173, 0.0 ], [ -65.7236, -28.4248, 0.0 ], [ -65.7246, -28.4311, 0.0 ], [ -65.7262, -28.4332, 0.0 ], [ -65.7281, -28.4346, 0.0 ], [ -65.7309, -28.4379, 0.0 ], [ -65.7328, -28.4404, 0.0 ], [ -65.7338, -28.4423, 0.0 ], [ -65.7349, -28.4423, 0.0 ], [ -65.7342, -28.4448, 0.0 ], [ -65.7349, -28.4462, 0.0 ], [ -65.734, -28.4515, 0.0 ], [ -65.7358, -28.4523, 0.0 ], [ -65.7378, -28.4525, 0.0 ], [ -65.739, -28.458, 0.0 ], [ -65.7444, -28.4556, 0.0 ], [ -65.7463, -28.4537, 0.0 ], [ -65.7467, -28.4486, 0.0 ], [ -65.7679, -28.44, 0.0 ], [ -65.7705, -28.4381, 0.0 ] ] ] ] } },
{ "type": "Feature", "properties": { "circuito": "00044", "codprov": "03", "coddepto": "005" }, "geometry": { "type": "MultiPolygon", "coordinates": [ [ [ [ -65.2441, -28.2876, 0.0 ], [ -65.2156, -28.3115, 0.0 ], [ -65.1885, -28.3402, 0.0 ], [ -65.1645, -28.3438, 0.0 ], [ -65.1572, -28.3147, 0.0 ], [ -65.1278, -28.3262, 0.0 ], [ -65.1103, -28.3108, 0.0 ], [ -65.1019, -28.3817, 0.0 ], [ -65.1557, -28.3891, 0.0 ], [ -65.2324, -28.4027, 0.0 ], [ -65.2284, -28.3713, 0.0 ], [ -65.2594, -28.3304, 0.0 ], [ -65.2441, -28.2876, 0.0 ] ] ] ] } },
{ "type": "Feature", "properties": { "circuito": "00045", "codprov": "03", "coddepto": "005" }, "geometry": { "type": "MultiPolygon", "coordinates": [ [ [ [ -65.4049, -28.4585, 0.0 ], [ -65.1, -28.479, 0.0 ], [ -65.1226, -28.6045, 0.0 ], [ -65.1673, -28.6033, 0.0 ], [ -65.1803, -28.593, 0.0 ], [ -65.1842, -28.6438, 0.0 ], [ -65.2265, -28.6223, 0.0 ], [ -65.2743, -28.6206, 0.0 ], [ -65.3307, -28.5611, 0.0 ], [ -65.4049, -28.4585, 0.0 ] ] ] ] } },
{ "type": "Feature", "properties": { "circuito": "00046", "codprov": "03", "coddepto": "005" }, "geometry": { "type": "MultiPolygon", "coordinates": [ [ [ [ -65.5804, -28.438, 0.0 ], [ -65.5573, -28.3462, 0.0 ], [ -65.5836, -28.305, 0.0 ], [ -65.4684, -28.2923, 0.0 ], [ -65.3692, -28.3391, 0.0 ], [ -65.3074, -28.3394, 0.0 ], [ -65.2594, -28.3304, 0.0 ], [ -65.2284, -28.3713, 0.0 ], [ -65.2324, -28.4027, 0.0 ], [ -65.4097, -28.4592, 0.0 ], [ -65.5804, -28.438, 0.0 ] ] ] ] } },
{ "type": "Feature", "properties": { "circuito": "00047", "codprov": "03", "coddepto": "005" }, "geometry": { "type": "MultiPolygon", "coordinates": [ [ [ [ -65.3307, -28.5611, 0.0 ], [ -65.276, -28.6206, 0.0 ], [ -65.3424, -28.6108, 0.0 ], [ -65.3656, -28.643, 0.0 ], [ -65.4028, -28.6511, 0.0 ], [ -65.4212, -28.6815, 0.0 ], [ -65.4578, -28.681, 0.0 ], [ -65.4612, -28.656, 0.0 ], [ -65.6329, -28.6083, 0.0 ], [ -65.6294, -28.5638, 0.0 ], [ -65.611, -28.5309, 0.0 ], [ -65.3307, -28.5611, 0.0 ] ] ] ] } },
{ "type": "Feature", "properties": { "circuito": "00048", "codprov": "03", "coddepto": "005" }, "geometry": { "type": "MultiPolygon", "coordinates": [ [ [ [ -65.1439, -28.386, 0.0 ], [ -65.1378, -28.4766, 0.0 ], [ -65.4049, -28.4585, 0.0 ], [ -65.2324, -28.4027, 0.0 ], [ -65.1439, -28.386, 0.0 ] ] ] ] } },
{ "type": "Feature", "properties": { "circuito": "00049", "codprov": "03", "coddepto": "005" }, "geometry": { "type": "MultiPolygon", "coordinates": [ [ [ [ -65.4049, -28.4585, 0.0 ], [ -65.3307, -28.5611, 0.0 ], [ -65.611, -28.5336, 0.0 ], [ -65.6153, -28.5106, 0.0 ], [ -65.5735, -28.4492, 0.0 ], [ -65.5776, -28.4371, 0.0 ], [ -65.4097, -28.4592, 0.0 ], [ -65.4049, -28.4585, 0.0 ] ] ] ] } },
{ "type": "Feature", "properties": { "circuito": "00050", "codprov": "03", "coddepto": "005" }, "geometry": { "type": "MultiPolygon", "coordinates": [ [ [ [ -65.2594, -28.3304, 0.0 ], [ -65.3074, -28.3394, 0.0 ], [ -65.3692, -28.3391, 0.0 ], [ -65.4684, -28.2923, 0.0 ], [ -65.5836, -28.305, 0.0 ], [ -65.5818, -28.2133, 0.0 ], [ -65.5296, -28.2121, 0.0 ], [ -65.5188, -28.2415, 0.0 ], [ -65.5035, -28.2376, 0.0 ], [ -65.4804, -28.2134, 0.0 ], [ -65.48, -28.1919, 0.0 ], [ -65.4581, -28.173, 0.0 ], [ -65.291, -28.2378, 0.0 ], [ -65.2689, -28.2684, 0.0 ], [ -65.2441, -28.2876, 0.0 ], [ -65.2594, -28.3304, 0.0 ] ] ] ] } },
{ "type": "Feature", "properties": { "circuito": "0044A", "codprov": "03", "coddepto": "005" }, "geometry": { "type": "MultiPolygon", "coordinates": [ [ [ [ -65.1378, -28.4766, 0.0 ], [ -65.1437, -28.3877, 0.0 ], [ -65.1019, -28.3817, 0.0 ], [ -65.0994, -28.413, 0.0 ], [ -65.1, -28.479, 0.0 ], [ -65.1378, -28.4766, 0.0 ] ] ] ] } },
{ "type": "Feature", "properties": { "circuito": "00077", "codprov": "03", "coddepto": "009" }, "geometry": { "type": "MultiPolygon", "coordinates": [ [ [ [ -65.8043, -28.3211, 0.0 ], [ -65.7098, -28.3244, 0.0 ], [ -65.7056, -28.3335, 0.0 ], [ -65.699, -28.3409, 0.0 ], [ -65.702, -28.3495, 0.0 ], [ -65.6994, -28.3535, 0.0 ], [ -65.6946, -28.3528, 0.0 ], [ -65.6873, -28.3536, 0.0 ], [ -65.6895, -28.357, 0.0 ], [ -65.694, -28.3612, 0.0 ], [ -65.6943, -28.3689, 0.0 ], [ -65.6903, -28.3707, 0.0 ], [ -65.7083, -28.3696, 0.0 ], [ -65.7089, -28.3706, 0.0 ], [ -65.716, -28.3701, 0.0 ], [ -65.7192, -28.3662, 0.0 ], [ -65.7807, -28.3677, 0.0 ], [ -65.7816, -28.3633, 0.0 ], [ -65.7804, -28.3611, 0.0 ], [ -65.7824, -28.3578, 0.0 ], [ -65.7847, -28.3574, 0.0 ], [ -65.7853, -28.3468, 0.0 ], [ -65.7914, -28.3436, 0.0 ], [ -65.8043, -28.3211, 0.0 ] ] ] ] } },
{ "type": "Feature", "properties": { "circuito": "00078", "codprov": "03", "coddepto": "009" }, "geometry": { "type": "MultiPolygon", "coordinates": [ [ [ [ -65.8164, -28.2911, 0.0 ], [ -65.8188, -28.2773, 0.0 ], [ -65.8249, -28.2681, 0.0 ], [ -65.8227, -28.261, 0.0 ], [ -65.8196, -28.2636, 0.0 ], [ -65.8187, -28.2579, 0.0 ], [ -65.8156, -28.2576, 0.0 ], [ -65.8129, -28.2599, 0.0 ], [ -65.8093, -28.2549, 0.0 ], [ -65.8045, -28.2518, 0.0 ], [ -65.7983, -28.2504, 0.0 ], [ -65.7944, -28.2527, 0.0 ], [ -65.7895, -28.2508, 0.0 ], [ -65.7821, -28.253, 0.0 ], [ -65.7816, -28.2551, 0.0 ], [ -65.776, -28.2552, 0.0 ], [ -65.7689, -28.253, 0.0 ], [ -65.7659, -28.249, 0.0 ], [ -65.7626, -28.2447, 0.0 ], [ -65.7551, -28.2466, 0.0 ], [ -65.7334, -28.2465, 0.0 ], [ -65.7349, -28.2508, 0.0 ], [ -65.7348, -28.2574, 0.0 ], [ -65.733, -28.2644, 0.0 ], [ -65.7293, -28.2659, 0.0 ], [ -65.7271, -28.2713, 0.0 ], [ -65.727, -28.2799, 0.0 ], [ -65.7198, -28.2904, 0.0 ], [ -65.8164, -28.2911, 0.0 ] ] ] ] } },
{ "type": "Feature", "properties": { "circuito": "00079", "codprov": "03", "coddepto": "009" }, "geometry": { "type": "MultiPolygon", "coordinates": [ [ [ [ -65.8164, -28.2911, 0.0 ], [ -65.7198, -28.2904, 0.0 ], [ -65.7192, -28.2931, 0.0 ], [ -65.7158, -28.2972, 0.0 ], [ -65.7135, -28.3056, 0.0 ], [ -65.7098, -28.3134, 0.0 ], [ -65.7098, -28.3244, 0.0 ], [ -65.8029, -28.3219, 0.0 ], [ -65.812, -28.3071, 0.0 ], [ -65.8164, -28.2911, 0.0 ] ] ] ] } },
{ "type": "Feature", "properties": { "circuito": "00080", "codprov": "03", "coddepto": "009" }, "geometry": { "type": "MultiPolygon", "coordinates": [ [ [ [ -65.7152, -28.3947, 0.0 ], [ -65.7039, -28.3955, 0.0 ], [ -65.6796, -28.3938, 0.0 ], [ -65.6738, -28.4198, 0.0 ], [ -65.6889, -28.4202, 0.0 ], [ -65.6937, -28.4234, 0.0 ], [ -65.6997, -28.4241, 0.0 ], [ -65.6997, -28.4262, 0.0 ], [ -65.7019, -28.4263, 0.0 ], [ -65.7084, -28.4259, 0.0 ], [ -65.7117, -28.425, 0.0 ], [ -65.7236, -28.4248, 0.0 ], [ -65.7215, -28.4173, 0.0 ], [ -65.7186, -28.4113, 0.0 ], [ -65.7152, -28.3947, 0.0 ] ] ] ] } },
{ "type": "Feature", "properties": { "circuito": "00081", "codprov": "03", "coddepto": "009" }, "geometry": { "type": "MultiPolygon", "coordinates": [ [ [ [ -65.7807, -28.3677, 0.0 ], [ -65.7252, -28.3661, 0.0 ], [ -65.7225, -28.3662, 0.0 ], [ -65.7192, -28.3662, 0.0 ], [ -65.716, -28.3701, 0.0 ], [ -65.7089, -28.3706, 0.0 ], [ -65.7083, -28.3696, 0.0 ], [ -65.6903, -28.3707, 0.0 ], [ -65.6876, -28.3736, 0.0 ], [ -65.6861, -28.3762, 0.0 ], [ -65.6844, -28.3849, 0.0 ], [ -65.6803, -28.3902, 0.0 ], [ -65.6796, -28.3938, 0.0 ], [ -65.7039, -28.3955, 0.0 ], [ -65.7152, -28.3947, 0.0 ], [ -65.7549, -28.3933, 0.0 ], [ -65.7676, -28.3957, 0.0 ], [ -65.7704, -28.3887, 0.0 ], [ -65.7703, -28.3791, 0.0 ], [ -65.7781, -28.3719, 0.0 ], [ -65.7807, -28.3677, 0.0 ] ] ] ] } },
{ "type": "Feature", "properties": { "circuito": "00022", "codprov": "03", "coddepto": "003" }, "geometry": { "type": "MultiPolygon", "coordinates": [ [ [ [ -65.305, -28.7307, 0.0 ], [ -65.3056, -28.663, 0.0 ], [ -65.2766, -28.6693, 0.0 ], [ -65.1603, -28.6636, 0.0 ], [ -65.1443, -28.6602, 0.0 ], [ -65.1268, -28.7186, 0.0 ], [ -65.2119, -28.7224, 0.0 ], [ -65.305, -28.7307, 0.0 ] ] ] ] } },
{ "type": "Feature", "properties": { "circuito": "00023", "codprov": "03", "coddepto": "003" }, "geometry": { "type": "MultiPolygon", "coordinates": [ [ [ [ -65.4186, -30.1139, 0.0 ], [ -65.5807, -29.6984, 0.0 ], [ -65.5455, -29.6372, 0.0 ], [ -64.9701, -29.5751, 0.0 ], [ -64.9128, -29.9125, 0.0 ], [ -65.1248, -30.0592, 0.0 ], [ -65.4186, -30.1139, 0.0 ] ] ] ] } },
{ "type": "Feature", "properties": { "circuito": "00024", "codprov": "03", "coddepto": "003" }, "geometry": { "type": "MultiPolygon", "coordinates": [ [ [ [ -65.3596, -29.0367, 0.0 ], [ -65.0794, -29.4461, 0.0 ], [ -65.4989, -29.4818, 0.0 ], [ -65.4731, -29.2989, 0.0 ], [ -65.4837, -29.2792, 0.0 ], [ -65.4674, -29.2641, 0.0 ], [ -65.4396, -29.2009, 0.0 ], [ -65.4026, -29.194, 0.0 ], [ -65.3812, -29.1623, 0.0 ], [ -65.369, -29.1346, 0.0 ], [ -65.3596, -29.0367, 0.0 ] ] ] ] } },
{ "type": "Feature", "properties": { "circuito": "00025", "codprov": "03", "coddepto": "003" }, "geometry": { "type": "MultiPolygon", "coordinates": [ [ [ [ -65.3596, -29.0367, 0.0 ], [ -65.3641, -28.9779, 0.0 ], [ -65.3444, -28.9436, 0.0 ], [ -65.3644, -28.8288, 0.0 ], [ -65.3183, -28.7283, 0.0 ], [ -65.305, -28.7307, 0.0 ], [ -65.2119, -28.7224, 0.0 ], [ -65.2092, -29.0278, 0.0 ], [ -65.3596, -29.0367, 0.0 ] ] ] ] } },
{ "type": "Feature", "properties": { "circuito": "00026", "codprov": "03", "coddepto": "003" }, "geometry": { "type": "MultiPolygon", "coordinates": [ [ [ [ -65.5455, -29.6372, 0.0 ], [ -65.5497, -29.631, 0.0 ], [ -65.5415, -29.6214, 0.0 ], [ -65.5685, -29.5295, 0.0 ], [ -65.5526, -29.5027, 0.0 ], [ -65.5511, -29.4651, 0.0 ], [ -65.4996, -29.4837, 0.0 ], [ -64.8372, -29.4204, 0.0 ], [ -64.8295, -29.4963, 0.0 ], [ -64.8392, -29.5131, 0.0 ], [ -64.8314, -29.5244, 0.0 ], [ -64.8296, -29.5579, 0.0 ], [ -65.5455, -29.6372, 0.0 ] ] ] ] } },
{ "type": "Feature", "properties": { "circuito": "00027", "codprov": "03", "coddepto": "003" }, "geometry": { "type": "MultiPolygon", "coordinates": [ [ [ [ -65.3438, -28.6108, 0.0 ], [ -65.276, -28.6206, 0.0 ], [ -65.2265, -28.6223, 0.0 ], [ -65.1842, -28.6438, 0.0 ], [ -65.1794, -28.6497, 0.0 ], [ -65.1443, -28.6602, 0.0 ], [ -65.1632, -28.6629, 0.0 ], [ -65.2766, -28.6693, 0.0 ], [ -65.3056, -28.663, 0.0 ], [ -65.3322, -28.6501, 0.0 ], [ -65.3438, -28.6108, 0.0 ] ] ] ] } },
{ "type": "Feature", "properties": { "circuito": "00028", "codprov": "03", "coddepto": "003" }, "geometry": { "type": "MultiPolygon", "coordinates": [ [ [ [ -65.2119, -28.7224, 0.0 ], [ -65.1268, -28.7186, 0.0 ], [ -65.0243, -28.7435, 0.0 ], [ -64.9633, -28.8295, 0.0 ], [ -65.2105, -28.8456, 0.0 ], [ -65.2119, -28.7224, 0.0 ] ] ] ] } },
{ "type": "Feature", "properties": { "circuito": "00029", "codprov": "03", "coddepto": "003" }, "geometry": { "type": "MultiPolygon", "coordinates": [ [ [ [ -65.4396, -29.2009, 0.0 ], [ -65.4825, -29.1221, 0.0 ], [ -65.3673, -29.1143, 0.0 ], [ -65.369, -29.1346, 0.0 ], [ -65.3812, -29.1623, 0.0 ], [ -65.4026, -29.194, 0.0 ], [ -65.4396, -29.2009, 0.0 ] ] ] ] } },
{ "type": "Feature", "properties": { "circuito": "00030", "codprov": "03", "coddepto": "003" }, "geometry": { "type": "MultiPolygon", "coordinates": [ [ [ [ -65.3596, -29.0367, 0.0 ], [ -64.8583, -29.0111, 0.0 ], [ -64.8185, -29.0495, 0.0 ], [ -64.8254, -29.1251, 0.0 ], [ -64.8528, -29.1707, 0.0 ], [ -64.8872, -29.2845, 0.0 ], [ -64.846, -29.3061, 0.0 ], [ -64.8927, -29.3229, 0.0 ], [ -64.8872, -29.3552, 0.0 ], [ -64.8372, -29.4204, 0.0 ], [ -65.0794, -29.4461, 0.0 ], [ -65.3596, -29.0367, 0.0 ] ] ] ] } },
{ "type": "Feature", "properties": { "circuito": "00031", "codprov": "03", "coddepto": "003" }, "geometry": { "type": "MultiPolygon", "coordinates": [ [ [ [ -65.4654, -29.1502, 0.0 ], [ -65.4396, -29.2009, 0.0 ], [ -65.4674, -29.2641, 0.0 ], [ -65.5342, -29.2701, 0.0 ], [ -65.5148, -29.2162, 0.0 ], [ -65.4654, -29.1502, 0.0 ] ] ] ] } },
{ "type": "Feature", "properties": { "circuito": "00032", "codprov": "03", "coddepto": "003" }, "geometry": { "type": "MultiPolygon", "coordinates": [ [ [ [ -64.9633, -28.8295, 0.0 ], [ -64.9125, -28.8692, 0.0 ], [ -64.8974, -28.9534, 0.0 ], [ -64.8583, -29.0111, 0.0 ], [ -65.2092, -29.0278, 0.0 ], [ -65.2105, -28.8456, 0.0 ], [ -64.9633, -28.8295, 0.0 ] ] ] ] } },
{ "type": "Feature", "properties": { "circuito": "00062", "codprov": "03", "coddepto": "007" }, "geometry": { "type": "MultiPolygon", "coordinates": [ [ [ [ -65.7198, -28.2904, 0.0 ], [ -65.727, -28.2799, 0.0 ], [ -65.7271, -28.2713, 0.0 ], [ -65.7293, -28.2659, 0.0 ], [ -65.733, -28.2644, 0.0 ], [ -65.7349, -28.2508, 0.0 ], [ -65.7334, -28.2465, 0.0 ], [ -65.7439, -28.2329, 0.0 ], [ -65.7442, -28.2261, 0.0 ], [ -65.7447, -28.223, 0.0 ], [ -65.7515, -28.2161, 0.0 ], [ -65.5831, -28.2074, 0.0 ], [ -65.5834, -28.2886, 0.0 ], [ -65.7198, -28.2904, 0.0 ] ] ] ] } },
{ "type": "Feature", "properties": { "circuito": "00063", "codprov": "03", "coddepto": "007" }, "geometry": { "type": "MultiPolygon", "coordinates": [ [ [ [ -65.8012, -27.9039, 0.0 ], [ -65.8156, -27.8551, 0.0 ], [ -65.8039, -27.848, 0.0 ], [ -65.7826, -27.7799, 0.0 ], [ -65.7476, -27.769, 0.0 ], [ -65.6975, -27.8285, 0.0 ], [ -65.6872, -27.8948, 0.0 ], [ -65.8012, -27.9039, 0.0 ] ] ] ] } },
{ "type": "Feature", "properties": { "circuito": "00064", "codprov": "03", "coddepto": "007" }, "geometry": { "type": "MultiPolygon", "coordinates": [ [ [ [ -65.8012, -27.9039, 0.0 ], [ -65.6968, -27.8951, 0.0 ], [ -65.6872, -27.8948, 0.0 ], [ -65.6611, -27.9542, 0.0 ], [ -65.6531, -27.963, 0.0 ], [ -65.7797, -27.9696, 0.0 ], [ -65.7869, -27.9394, 0.0 ], [ -65.7967, -27.9247, 0.0 ], [ -65.7981, -27.9117, 0.0 ], [ -65.8012, -27.9039, 0.0 ] ] ] ] } },
{ "type": "Feature", "properties": { "circuito": "00065", "codprov": "03", "coddepto": "007" }, "geometry": { "type": "MultiPolygon", "coordinates": [ [ [ [ -65.7639, -28.1066, 0.0 ], [ -65.5729, -28.084, 0.0 ], [ -65.5618, -28.1217, 0.0 ], [ -65.5685, -28.1196, 0.0 ], [ -65.5785, -28.1319, 0.0 ], [ -65.5903, -28.1475, 0.0 ], [ -65.5831, -28.2074, 0.0 ], [ -65.7515, -28.2161, 0.0 ], [ -65.7639, -28.1066, 0.0 ] ] ] ] } },
{ "type": "Feature", "properties": { "circuito": "00066", "codprov": "03", "coddepto": "007" }, "geometry": { "type": "MultiPolygon", "coordinates": [ [ [ [ -65.6531, -27.963, 0.0 ], [ -65.6184, -27.963, 0.0 ], [ -65.5985, -27.9879, 0.0 ], [ -65.5917, -27.9925, 0.0 ], [ -65.5576, -27.9968, 0.0 ], [ -65.5614, -28.0083, 0.0 ], [ -65.5657, -28.0129, 0.0 ], [ -65.5729, -28.084, 0.0 ], [ -65.6215, -28.0891, 0.0 ], [ -65.6531, -27.9652, 0.0 ], [ -65.6531, -27.963, 0.0 ] ] ] ] } },
{ "type": "Feature", "properties": { "circuito": "00067", "codprov": "03", "coddepto": "007" }, "geometry": { "type": "MultiPolygon", "coordinates": [ [ [ [ -65.7198, -28.2904, 0.0 ], [ -65.5834, -28.2886, 0.0 ], [ -65.5836, -28.305, 0.0 ], [ -65.5573, -28.3462, 0.0 ], [ -65.5804, -28.438, 0.0 ], [ -65.6272, -28.4327, 0.0 ], [ -65.6732, -28.4223, 0.0 ], [ -65.6796, -28.3938, 0.0 ], [ -65.683, -28.385, 0.0 ], [ -65.6859, -28.3748, 0.0 ], [ -65.6931, -28.3687, 0.0 ], [ -65.694, -28.3612, 0.0 ], [ -65.6873, -28.3536, 0.0 ], [ -65.6994, -28.3535, 0.0 ], [ -65.7019, -28.3492, 0.0 ], [ -65.699, -28.3409, 0.0 ], [ -65.7061, -28.3323, 0.0 ], [ -65.7098, -28.3244, 0.0 ], [ -65.7098, -28.3134, 0.0 ], [ -65.7137, -28.3045, 0.0 ], [ -65.7158, -28.2972, 0.0 ], [ -65.7192, -28.2931, 0.0 ], [ -65.7198, -28.2904, 0.0 ] ] ] ] } },
{ "type": "Feature", "properties": { "circuito": "00068", "codprov": "03", "coddepto": "007" }, "geometry": { "type": "MultiPolygon", "coordinates": [ [ [ [ -65.6531, -27.963, 0.0 ], [ -65.6215, -28.0891, 0.0 ], [ -65.765, -28.1099, 0.0 ], [ -65.784, -28.0682, 0.0 ], [ -65.7917, -28.0653, 0.0 ], [ -65.7952, -28.0427, 0.0 ], [ -65.7705, -28.0284, 0.0 ], [ -65.7797, -27.9696, 0.0 ], [ -65.6531, -27.963, 0.0 ] ] ] ] } },
{ "type": "Feature", "properties": { "circuito": "00090", "codprov": "03", "coddepto": "011" }, "geometry": { "type": "MultiPolygon", "coordinates": [ [ [ [ -66.1919, -28.3673, 0.0 ], [ -66.1922, -28.3279, 0.0 ], [ -66.0585, -28.3267, 0.0 ], [ -66.0412, -28.4064, 0.0 ], [ -66.0421, -28.4398, 0.0 ], [ -66.0294, -28.4563, 0.0 ], [ -66.052, -28.4947, 0.0 ], [ -66.0718, -28.5127, 0.0 ], [ -66.1057, -28.5181, 0.0 ], [ -66.1919, -28.3673, 0.0 ] ] ] ] } },
{ "type": "Feature", "properties": { "circuito": "00091", "codprov": "03", "coddepto": "011" }, "geometry": { "type": "MultiPolygon", "coordinates": [ [ [ [ -66.4489, -27.9681, 0.0 ], [ -66.4023, -27.9003, 0.0 ], [ -66.2548, -27.8094, 0.0 ], [ -66.1732, -27.7663, 0.0 ], [ -66.1642, -27.7361, 0.0 ], [ -66.1752, -27.7032, 0.0 ], [ -66.1644, -27.6881, 0.0 ], [ -66.1676, -27.6777, 0.0 ], [ -66.1758, -27.6747, 0.0 ], [ -66.1763, -27.6495, 0.0 ], [ -66.1437, -27.6597, 0.0 ], [ -66.1051, -27.6836, 0.0 ], [ -66.074, -27.7562, 0.0 ], [ -66.095, -27.7705, 0.0 ], [ -66.0972, -27.8167, 0.0 ], [ -66.0969, -27.8227, 0.0 ], [ -66.0895, -27.8255, 0.0 ], [ -66.0603, -27.9013, 0.0 ], [ -66.08, -27.9167, 0.0 ], [ -66.0896, -27.943, 0.0 ], [ -66.0965, -27.942, 0.0 ], [ -66.108, -27.9759, 0.0 ], [ -66.0892, -27.9843, 0.0 ], [ -66.0984, -28.0205, 0.0 ], [ -66.0747, -28.0838, 0.0 ], [ -66.212, -28.0838, 0.0 ], [ -66.4489, -27.9681, 0.0 ] ] ] ] } },
{ "type": "Feature", "properties": { "circuito": "00092", "codprov": "03", "coddepto": "011" }, "geometry": { "type": "MultiPolygon", "coordinates": [ [ [ [ -66.1922, -28.3279, 0.0 ], [ -66.1919, -28.3673, 0.0 ], [ -66.3017, -28.4005, 0.0 ], [ -66.3429, -28.6021, 0.0 ], [ -66.4075, -28.6864, 0.0 ], [ -66.4888, -28.6416, 0.0 ], [ -66.4769, -28.5436, 0.0 ], [ -66.5249, -28.5388, 0.0 ], [ -66.5071, -28.4628, 0.0 ], [ -66.5744, -28.3166, 0.0 ], [ -66.985, -28.238, 0.0 ], [ -67.0465, -28.2716, 0.0 ], [ -67.055, -28.2198, 0.0 ], [ -67.0372, -28.1712, 0.0 ], [ -66.2509, -28.293, 0.0 ], [ -66.1922, -28.3279, 0.0 ] ] ] ] } },
{ "type": "Feature", "properties": { "circuito": "00093", "codprov": "03", "coddepto": "011" }, "geometry": { "type": "MultiPolygon", "coordinates": [ [ [ [ -66.1922, -28.3279, 0.0 ], [ -66.1902, -28.264, 0.0 ], [ -66.0456, -28.2677, 0.0 ], [ -66.0626, -28.3196, 0.0 ], [ -66.0585, -28.3267, 0.0 ], [ -66.1922, -28.3279, 0.0 ] ] ] ] } },
{ "type": "Feature", "properties": { "circuito": "00094", "codprov": "03", "coddepto": "011" }, "geometry": { "type": "MultiPolygon", "coordinates": [ [ [ [ -66.2038, -28.2514, 0.0 ], [ -66.1784, -28.1552, 0.0 ], [ -66.0385, -28.1506, 0.0 ], [ -66.0487, -28.18, 0.0 ], [ -66.0328, -28.2099, 0.0 ], [ -66.0419, -28.2321, 0.0 ], [ -66.0449, -28.2664, 0.0 ], [ -66.1804, -28.263, 0.0 ], [ -66.2038, -28.2514, 0.0 ] ] ] ] } },
{ "type": "Feature", "properties": { "circuito": "00095", "codprov": "03", "coddepto": "011" }, "geometry": { "type": "MultiPolygon", "coordinates": [ [ [ [ -66.4952, -28.0324, 0.0 ], [ -66.4489, -27.9681, 0.0 ], [ -66.212, -28.0838, 0.0 ], [ -66.0747, -28.0838, 0.0 ], [ -66.0452, -28.1505, 0.0 ], [ -66.1839, -28.1541, 0.0 ], [ -66.2175, -28.1486, 0.0 ], [ -66.2697, -28.1317, 0.0 ], [ -66.4952, -28.0324, 0.0 ] ] ] ] } },
{ "type": "Feature", "properties": { "circuito": "00096", "codprov": "03", "coddepto": "011" }, "geometry": { "type": "MultiPolygon", "coordinates": [ [ [ [ -66.1839, -28.1607, 0.0 ], [ -66.2038, -28.246, 0.0 ], [ -66.315, -28.2188, 0.0 ], [ -66.5654, -28.0728, 0.0 ], [ -66.5841, -28.0289, 0.0 ], [ -66.4952, -28.0324, 0.0 ], [ -66.2649, -28.1346, 0.0 ], [ -66.1839, -28.1607, 0.0 ] ] ] ] } },
{ "type": "Feature", "properties": { "circuito": "00097", "codprov": "03", "coddepto": "011" }, "geometry": { "type": "MultiPolygon", "coordinates": [ [ [ [ -67.0372, -28.1712, 0.0 ], [ -66.8073, -28.019, 0.0 ], [ -66.5841, -28.0289, 0.0 ], [ -66.5654, -28.0728, 0.0 ], [ -66.315, -28.2188, 0.0 ], [ -66.2038, -28.246, 0.0 ], [ -66.2038, -28.2514, 0.0 ], [ -66.1804, -28.263, 0.0 ], [ -66.1902, -28.264, 0.0 ], [ -66.1934, -28.3259, 0.0 ], [ -66.2509, -28.293, 0.0 ], [ -67.0372, -28.1712, 0.0 ] ] ] ] } },
{ "type": "Feature", "properties": { "circuito": "00098", "codprov": "03", "coddepto": "011" }, "geometry": { "type": "MultiPolygon", "coordinates": [ [ [ [ -66.1919, -28.3673, 0.0 ], [ -66.1053, -28.5225, 0.0 ], [ -66.1239, -28.5318, 0.0 ], [ -66.1374, -28.5521, 0.0 ], [ -66.1445, -28.5846, 0.0 ], [ -66.1694, -28.6121, 0.0 ], [ -66.2049, -28.6708, 0.0 ], [ -66.2402, -28.7132, 0.0 ], [ -66.2598, -28.7087, 0.0 ], [ -66.2782, -28.7397, 0.0 ], [ -66.3344, -28.7494, 0.0 ], [ -66.336, -28.7318, 0.0 ], [ -66.4075, -28.6864, 0.0 ], [ -66.3429, -28.6021, 0.0 ], [ -66.3017, -28.4005, 0.0 ], [ -66.1919, -28.3673, 0.0 ] ] ] ] } },
{ "type": "Feature", "properties": { "circuito": "00144", "codprov": "03", "coddepto": "016" }, "geometry": { "type": "MultiPolygon", "coordinates": [ [ [ [ -66.201, -26.9278, 0.0 ], [ -66.5905, -26.9609, 0.0 ], [ -66.5846, -26.9074, 0.0 ], [ -66.619, -26.829, 0.0 ], [ -66.6285, -26.7827, 0.0 ], [ -66.6155, -26.7625, 0.0 ], [ -66.6058, -26.7472, 0.0 ], [ -66.5769, -26.6718, 0.0 ], [ -66.2276, -26.6867, 0.0 ], [ -66.201, -26.9278, 0.0 ] ] ] ] } },
{ "type": "Feature", "properties": { "circuito": "00145", "codprov": "03", "coddepto": "016" }, "geometry": { "type": "MultiPolygon", "coordinates": [ [ [ [ -65.905, -26.9716, 0.0 ], [ -66.114, -26.9204, 0.0 ], [ -66.201, -26.9278, 0.0 ], [ -66.2086, -26.8555, 0.0 ], [ -65.8972, -26.8632, 0.0 ], [ -65.8776, -26.8739, 0.0 ], [ -65.8711, -26.888, 0.0 ], [ -65.8577, -26.9012, 0.0 ], [ -65.905, -26.9716, 0.0 ] ] ] ] } },
{ "type": "Feature", "properties": { "circuito": "00146", "codprov": "03", "coddepto": "016" }, "geometry": { "type": "MultiPolygon", "coordinates": [ [ [ [ -66.0762, -26.8013, 0.0 ], [ -66.0678, -26.8138, 0.0 ], [ -66.057, -26.8215, 0.0 ], [ -66.0517, -26.8233, 0.0 ], [ -66.0431, -26.8171, 0.0 ], [ -65.8885, -26.8212, 0.0 ], [ -65.8975, -26.8359, 0.0 ], [ -65.892, -26.8445, 0.0 ], [ -65.8972, -26.8632, 0.0 ], [ -66.0983, -26.8577, 0.0 ], [ -66.0953, -26.8312, 0.0 ], [ -66.0762, -26.8013, 0.0 ] ] ] ] } },
{ "type": "Feature", "properties": { "circuito": "00147", "codprov": "03", "coddepto": "016" }, "geometry": { "type": "MultiPolygon", "coordinates": [ [ [ [ -66.0762, -26.8013, 0.0 ], [ -66.0967, -26.8349, 0.0 ], [ -66.0983, -26.8577, 0.0 ], [ -66.1547, -26.8566, 0.0 ], [ -66.2086, -26.8555, 0.0 ], [ -66.2265, -26.6971, 0.0 ], [ -66.0668, -26.6959, 0.0 ], [ -66.0559, -26.6975, 0.0 ], [ -66.0634, -26.7137, 0.0 ], [ -66.0609, -26.722, 0.0 ], [ -66.063, -26.7365, 0.0 ], [ -66.0706, -26.7482, 0.0 ], [ -66.0731, -26.7639, 0.0 ], [ -66.0762, -26.8013, 0.0 ] ] ] ] } },
{ "type": "Feature", "properties": { "circuito": "00148", "codprov": "03", "coddepto": "016" }, "geometry": { "type": "MultiPolygon", "coordinates": [ [ [ [ -66.5416, -26.4613, 0.0 ], [ -66.5201, -26.4037, 0.0 ], [ -66.5193, -26.2714, 0.0 ], [ -66.4839, -26.2909, 0.0 ], [ -66.4585, -26.3315, 0.0 ], [ -66.3672, -26.3912, 0.0 ], [ -66.3287, -26.2773, 0.0 ], [ -66.2285, -26.1498, 0.0 ], [ -66.1543, -26.1332, 0.0 ], [ -66.0849, -26.2121, 0.0 ], [ -66.1138, -26.3752, 0.0 ], [ -66.109, -26.3912, 0.0 ], [ -66.1433, -26.3912, 0.0 ], [ -66.1557, -26.5055, 0.0 ], [ -66.5416, -26.4613, 0.0 ] ] ] ] } },
{ "type": "Feature", "properties": { "circuito": "00149", "codprov": "03", "coddepto": "016" }, "geometry": { "type": "MultiPolygon", "coordinates": [ [ [ [ -66.0463, -26.661, 0.0 ], [ -66.203, -26.6568, 0.0 ], [ -66.1598, -26.6026, 0.0 ], [ -66.1594, -26.5917, 0.0 ], [ -66.1463, -26.6049, 0.0 ], [ -66.0605, -26.6096, 0.0 ], [ -66.0543, -26.6148, 0.0 ], [ -66.0427, -26.6203, 0.0 ], [ -66.046, -26.6442, 0.0 ], [ -66.0434, -26.6565, 0.0 ], [ -66.0463, -26.661, 0.0 ] ] ] ] } },
{ "type": "Feature", "properties": { "circuito": "00150", "codprov": "03", "coddepto": "016" }, "geometry": { "type": "MultiPolygon", "coordinates": [ [ [ [ -66.2276, -26.6867, 0.0 ], [ -66.5769, -26.6718, 0.0 ], [ -66.605, -26.625, 0.0 ], [ -66.5416, -26.4613, 0.0 ], [ -66.1557, -26.5055, 0.0 ], [ -66.1598, -26.6026, 0.0 ], [ -66.2276, -26.6867, 0.0 ] ] ] ] } },
{ "type": "Feature", "properties": { "circuito": "00151", "codprov": "03", "coddepto": "016" }, "geometry": { "type": "MultiPolygon", "coordinates": [ [ [ [ -66.0741, -26.7753, 0.0 ], [ -66.0706, -26.7482, 0.0 ], [ -66.063, -26.7365, 0.0 ], [ -66.0609, -26.722, 0.0 ], [ -66.0556, -26.7233, 0.0 ], [ -66.0533, -26.7241, 0.0 ], [ -65.9003, -26.7169, 0.0 ], [ -65.8863, -26.7227, 0.0 ], [ -65.8755, -26.7296, 0.0 ], [ -65.8614, -26.7423, 0.0 ], [ -65.8539, -26.7537, 0.0 ], [ -65.8533, -26.7673, 0.0 ], [ -65.8567, -26.7753, 0.0 ], [ -66.0741, -26.7753, 0.0 ] ] ] ] } },
{ "type": "Feature", "properties": { "circuito": "00152", "codprov": "03", "coddepto": "016" }, "geometry": { "type": "MultiPolygon", "coordinates": [ [ [ [ -66.294, -27.1686, 0.0 ], [ -66.5351, -27.2466, 0.0 ], [ -66.5562, -27.2179, 0.0 ], [ -66.5548, -27.1922, 0.0 ], [ -66.612, -27.1539, 0.0 ], [ -66.6317, -27.0957, 0.0 ], [ -66.6506, -27.0799, 0.0 ], [ -66.6435, -27.041, 0.0 ], [ -66.6226, -27.0183, 0.0 ], [ -66.5905, -26.9609, 0.0 ], [ -66.114, -26.9204, 0.0 ], [ -65.905, -26.9716, 0.0 ], [ -66.0094, -27.0963, 0.0 ], [ -66.0808, -27.1514, 0.0 ], [ -66.1516, -27.2439, 0.0 ], [ -66.294, -27.1686, 0.0 ] ] ] ] } },
{ "type": "Feature", "properties": { "circuito": "00153", "codprov": "03", "coddepto": "016" }, "geometry": { "type": "MultiPolygon", "coordinates": [ [ [ [ -66.0741, -26.7753, 0.0 ], [ -65.8567, -26.7753, 0.0 ], [ -65.864, -26.786, 0.0 ], [ -65.8736, -26.8172, 0.0 ], [ -65.8885, -26.8212, 0.0 ], [ -66.0431, -26.8171, 0.0 ], [ -66.0517, -26.8233, 0.0 ], [ -66.057, -26.8215, 0.0 ], [ -66.0678, -26.8138, 0.0 ], [ -66.0762, -26.8013, 0.0 ], [ -66.0741, -26.7753, 0.0 ] ] ] ] } },
{ "type": "Feature", "properties": { "circuito": "00154", "codprov": "03", "coddepto": "016" }, "geometry": { "type": "MultiPolygon", "coordinates": [ [ [ [ -66.0609, -26.722, 0.0 ], [ -66.0634, -26.7137, 0.0 ], [ -66.0559, -26.6975, 0.0 ], [ -66.0617, -26.6963, 0.0 ], [ -66.0668, -26.6959, 0.0 ], [ -66.2265, -26.6971, 0.0 ], [ -66.2276, -26.6867, 0.0 ], [ -66.203, -26.6568, 0.0 ], [ -66.0735, -26.6605, 0.0 ], [ -66.0463, -26.661, 0.0 ], [ -66.0434, -26.6565, 0.0 ], [ -66.046, -26.6442, 0.0 ], [ -66.0423, -26.6209, 0.0 ], [ -65.988, -26.6519, 0.0 ], [ -65.9566, -26.683, 0.0 ], [ -65.9171, -26.7088, 0.0 ], [ -65.8986, -26.7165, 0.0 ], [ -66.0533, -26.7241, 0.0 ], [ -66.0582, -26.7225, 0.0 ], [ -66.0609, -26.722, 0.0 ] ] ] ] } },
{ "type": "Feature", "properties": { "circuito": "00051", "codprov": "03", "coddepto": "006" }, "geometry": { "type": "MultiPolygon", "coordinates": [ [ [ [ -65.589, -28.1587, 0.0 ], [ -65.4762, -28.1562, 0.0 ], [ -65.4581, -28.173, 0.0 ], [ -65.4812, -28.1919, 0.0 ], [ -65.483, -28.212, 0.0 ], [ -65.4905, -28.2224, 0.0 ], [ -65.5116, -28.2383, 0.0 ], [ -65.5188, -28.2415, 0.0 ], [ -65.5195, -28.2273, 0.0 ], [ -65.5269, -28.2221, 0.0 ], [ -65.5255, -28.2167, 0.0 ], [ -65.531, -28.2115, 0.0 ], [ -65.5529, -28.2116, 0.0 ], [ -65.5818, -28.2133, 0.0 ], [ -65.589, -28.1587, 0.0 ] ] ] ] } },
{ "type": "Feature", "properties": { "circuito": "00052", "codprov": "03", "coddepto": "006" }, "geometry": { "type": "MultiPolygon", "coordinates": [ [ [ [ -65.2673, -28.1353, 0.0 ], [ -65.291, -28.2378, 0.0 ], [ -65.4581, -28.173, 0.0 ], [ -65.4762, -28.1562, 0.0 ], [ -65.4847, -28.0997, 0.0 ], [ -65.2673, -28.1353, 0.0 ] ] ] ] } },
{ "type": "Feature", "properties": { "circuito": "00053", "codprov": "03", "coddepto": "006" }, "geometry": { "type": "MultiPolygon", "coordinates": [ [ [ [ -65.4847, -28.0997, 0.0 ], [ -65.4493, -28.0691, 0.0 ], [ -65.405, -28.0066, 0.0 ], [ -65.2507, -28.0287, 0.0 ], [ -65.1566, -28.0296, 0.0 ], [ -65.1325, -28.1301, 0.0 ], [ -65.2307, -28.1407, 0.0 ], [ -65.4847, -28.0997, 0.0 ] ] ] ] } },
{ "type": "Feature", "properties": { "circuito": "00054", "codprov": "03", "coddepto": "006" }, "geometry": { "type": "MultiPolygon", "coordinates": [ [ [ [ -65.291, -28.2378, 0.0 ], [ -65.1103, -28.2193, 0.0 ], [ -65.1103, -28.3108, 0.0 ], [ -65.1278, -28.3262, 0.0 ], [ -65.1572, -28.3147, 0.0 ], [ -65.1645, -28.3438, 0.0 ], [ -65.1885, -28.3402, 0.0 ], [ -65.2171, -28.3084, 0.0 ], [ -65.2689, -28.2684, 0.0 ], [ -65.291, -28.2378, 0.0 ] ] ] ] } },
{ "type": "Feature", "properties": { "circuito": "00055", "codprov": "03", "coddepto": "006" }, "geometry": { "type": "MultiPolygon", "coordinates": [ [ [ [ -65.5004, -27.9261, 0.0 ], [ -65.4978, -27.9193, 0.0 ], [ -65.3756, -27.8422, 0.0 ], [ -65.3625, -27.8295, 0.0 ], [ -65.3629, -27.8371, 0.0 ], [ -65.1936, -27.926, 0.0 ], [ -65.4161, -27.9515, 0.0 ], [ -65.5004, -27.9261, 0.0 ] ] ] ] } },
{ "type": "Feature", "properties": { "circuito": "00056", "codprov": "03", "coddepto": "006" }, "geometry": { "type": "MultiPolygon", "coordinates": [ [ [ [ -65.291, -28.2378, 0.0 ], [ -65.2673, -28.1353, 0.0 ], [ -65.2318, -28.1412, 0.0 ], [ -65.1832, -28.1368, 0.0 ], [ -65.1691, -28.2242, 0.0 ], [ -65.291, -28.2378, 0.0 ] ] ] ] } },
{ "type": "Feature", "properties": { "circuito": "00057", "codprov": "03", "coddepto": "006" }, "geometry": { "type": "MultiPolygon", "coordinates": [ [ [ [ -65.1832, -28.1368, 0.0 ], [ -65.1325, -28.1301, 0.0 ], [ -65.1124, -28.1852, 0.0 ], [ -65.1103, -28.2193, 0.0 ], [ -65.1691, -28.2242, 0.0 ], [ -65.1832, -28.1368, 0.0 ] ] ] ] } },
{ "type": "Feature", "properties": { "circuito": "00058", "codprov": "03", "coddepto": "006" }, "geometry": { "type": "MultiPolygon", "coordinates": [ [ [ [ -65.5355, -27.9747, 0.0 ], [ -65.5312, -27.9725, 0.0 ], [ -65.5326, -27.9757, 0.0 ], [ -65.4441, -28.0003, 0.0 ], [ -65.405, -28.0066, 0.0 ], [ -65.4493, -28.0691, 0.0 ], [ -65.4847, -28.0997, 0.0 ], [ -65.5685, -28.0964, 0.0 ], [ -65.5729, -28.084, 0.0 ], [ -65.567, -28.0136, 0.0 ], [ -65.5617, -28.0093, 0.0 ], [ -65.5588, -27.9974, 0.0 ], [ -65.5355, -27.9747, 0.0 ] ] ] ] } },
{ "type": "Feature", "properties": { "circuito": "00059", "codprov": "03", "coddepto": "006" }, "geometry": { "type": "MultiPolygon", "coordinates": [ [ [ [ -65.4858, -28.1009, 0.0 ], [ -65.4818, -28.1332, 0.0 ], [ -65.4762, -28.1562, 0.0 ], [ -65.589, -28.1587, 0.0 ], [ -65.5903, -28.1475, 0.0 ], [ -65.5684, -28.1201, 0.0 ], [ -65.5618, -28.1217, 0.0 ], [ -65.5685, -28.0964, 0.0 ], [ -65.4847, -28.0997, 0.0 ], [ -65.4858, -28.1009, 0.0 ] ] ] ] } },
{ "type": "Feature", "properties": { "circuito": "00060", "codprov": "03", "coddepto": "006" }, "geometry": { "type": "MultiPolygon", "coordinates": [ [ [ [ -65.5004, -27.9261, 0.0 ], [ -65.4161, -27.9515, 0.0 ], [ -65.317, -27.9404, 0.0 ], [ -65.3444, -27.9708, 0.0 ], [ -65.3369, -28.0178, 0.0 ], [ -65.4381, -28.0011, 0.0 ], [ -65.4441, -28.0003, 0.0 ], [ -65.5326, -27.9757, 0.0 ], [ -65.5287, -27.9674, 0.0 ], [ -65.5154, -27.945, 0.0 ], [ -65.5004, -27.9261, 0.0 ] ] ] ] } },
{ "type": "Feature", "properties": { "circuito": "00061", "codprov": "03", "coddepto": "006" }, "geometry": { "type": "MultiPolygon", "coordinates": [ [ [ [ -65.3369, -28.0178, 0.0 ], [ -65.3444, -27.9708, 0.0 ], [ -65.317, -27.9404, 0.0 ], [ -65.1936, -27.926, 0.0 ], [ -65.1716, -27.9436, 0.0 ], [ -65.1684, -27.9574, 0.0 ], [ -65.1621, -27.9778, 0.0 ], [ -65.1566, -28.0296, 0.0 ], [ -65.2507, -28.0287, 0.0 ], [ -65.3369, -28.0178, 0.0 ] ] ] ] } },
{ "type": "Feature", "properties": { "circuito": "00128", "codprov": "03", "coddepto": "015" }, "geometry": { "type": "MultiPolygon", "coordinates": [ [ [ [ -67.4877, -28.1543, 0.0 ], [ -67.4326, -28.145, 0.0 ], [ -67.4242, -28.227, 0.0 ], [ -67.4666, -28.2142, 0.0 ], [ -67.4877, -28.1543, 0.0 ] ] ] ] } },
{ "type": "Feature", "properties": { "circuito": "00129", "codprov": "03", "coddepto": "015" }, "geometry": { "type": "MultiPolygon", "coordinates": [ [ [ [ -67.0515, -28.2581, 0.0 ], [ -67.092, -28.275, 0.0 ], [ -67.1627, -28.3766, 0.0 ], [ -67.197, -28.376, 0.0 ], [ -67.2314, -28.025, 0.0 ], [ -66.8073, -28.019, 0.0 ], [ -67.0372, -28.1712, 0.0 ], [ -67.055, -28.2198, 0.0 ], [ -67.0515, -28.2581, 0.0 ] ] ] ] } },
{ "type": "Feature", "properties": { "circuito": "00130", "codprov": "03", "coddepto": "015" }, "geometry": { "type": "MultiPolygon", "coordinates": [ [ [ [ -67.4877, -28.1543, 0.0 ], [ -67.463, -28.2284, 0.0 ], [ -67.4954, -28.2344, 0.0 ], [ -67.5335, -28.2196, 0.0 ], [ -67.5311, -28.162, 0.0 ], [ -67.4877, -28.1543, 0.0 ] ] ] ] } },
{ "type": "Feature", "properties": { "circuito": "00131", "codprov": "03", "coddepto": "015" }, "geometry": { "type": "MultiPolygon", "coordinates": [ [ [ [ -67.6344, -27.9821, 0.0 ], [ -67.7032, -27.9694, 0.0 ], [ -67.73, -27.8134, 0.0 ], [ -67.5892, -27.8152, 0.0 ], [ -67.5999, -27.9548, 0.0 ], [ -67.6186, -27.9863, 0.0 ], [ -67.6344, -27.9821, 0.0 ] ] ] ] } },
{ "type": "Feature", "properties": { "circuito": "00132", "codprov": "03", "coddepto": "015" }, "geometry": { "type": "MultiPolygon", "coordinates": [ [ [ [ -67.7062, -27.7385, 0.0 ], [ -67.7158, -27.6972, 0.0 ], [ -67.7142, -27.6661, 0.0 ], [ -67.5323, -27.674, 0.0 ], [ -67.5563, -27.7366, 0.0 ], [ -67.7062, -27.7385, 0.0 ] ] ] ] } },
{ "type": "Feature", "properties": { "circuito": "00133", "codprov": "03", "coddepto": "015" }, "geometry": { "type": "MultiPolygon", "coordinates": [ [ [ [ -68.3613, -26.8037, 0.0 ], [ -68.2912, -26.7727, 0.0 ], [ -68.224, -26.8171, 0.0 ], [ -68.1059, -26.7239, 0.0 ], [ -67.9875, -26.7557, 0.0 ], [ -67.8236, -26.7689, 0.0 ], [ -67.7293, -26.8043, 0.0 ], [ -67.5526, -26.9659, 0.0 ], [ -67.5146, -26.7587, 0.0 ], [ -67.4663, -26.7351, 0.0 ], [ -67.2883, -26.7066, 0.0 ], [ -67.2053, -26.7932, 0.0 ], [ -67.2094, -26.8624, 0.0 ], [ -67.2299, -26.8918, 0.0 ], [ -67.2395, -26.9847, 0.0 ], [ -67.3057, -27.0805, 0.0 ], [ -67.3028, -27.2175, 0.0 ], [ -67.6744, -27.2076, 0.0 ], [ -68.2978, -27.0397, 0.0 ], [ -68.3125, -26.9801, 0.0 ], [ -68.2644, -26.9189, 0.0 ], [ -68.3613, -26.8037, 0.0 ] ] ] ] } },
{ "type": "Feature", "properties": { "circuito": "00134", "codprov": "03", "coddepto": "015" }, "geometry": { "type": "MultiPolygon", "coordinates": [ [ [ [ -67.5784, -28.1141, 0.0 ], [ -67.4576, -28.0869, 0.0 ], [ -67.4006, -28.1387, 0.0 ], [ -67.6032, -28.1735, 0.0 ], [ -67.5784, -28.1141, 0.0 ] ] ] ] } },
{ "type": "Feature", "properties": { "circuito": "00135", "codprov": "03", "coddepto": "015" }, "geometry": { "type": "MultiPolygon", "coordinates": [ [ [ [ -67.7145, -27.6112, 0.0 ], [ -67.7129, -27.615, 0.0 ], [ -67.5151, -27.6089, 0.0 ], [ -67.5323, -27.674, 0.0 ], [ -67.7142, -27.6661, 0.0 ], [ -67.7145, -27.6112, 0.0 ] ] ] ] } },
{ "type": "Feature", "properties": { "circuito": "00136", "codprov": "03", "coddepto": "015" }, "geometry": { "type": "MultiPolygon", "coordinates": [ [ [ [ -67.7241, -27.5507, 0.0 ], [ -67.7431, -27.4689, 0.0 ], [ -67.6469, -27.4603, 0.0 ], [ -67.286, -27.4922, 0.0 ], [ -67.3312, -27.5606, 0.0 ], [ -67.7241, -27.5507, 0.0 ] ] ] ] } },
{ "type": "Feature", "properties": { "circuito": "00137", "codprov": "03", "coddepto": "015" }, "geometry": { "type": "MultiPolygon", "coordinates": [ [ [ [ -67.6469, -27.4603, 0.0 ], [ -68.1056, -27.4798, 0.0 ], [ -68.1112, -27.238, 0.0 ], [ -67.866, -27.2237, 0.0 ], [ -67.6401, -27.2072, 0.0 ], [ -67.6469, -27.4603, 0.0 ] ] ] ] } },
{ "type": "Feature", "properties": { "circuito": "00138", "codprov": "03", "coddepto": "015" }, "geometry": { "type": "MultiPolygon", "coordinates": [ [ [ [ -67.3564, -28.0373, 0.0 ], [ -67.335, -28.0296, 0.0 ], [ -67.2334, -28.0292, 0.0 ], [ -67.197, -28.376, 0.0 ], [ -67.3817, -28.376, 0.0 ], [ -67.4298, -28.3633, 0.0 ], [ -67.3564, -28.0373, 0.0 ] ] ] ] } },
{ "type": "Feature", "properties": { "circuito": "00139", "codprov": "03", "coddepto": "015" }, "geometry": { "type": "MultiPolygon", "coordinates": [ [ [ [ -67.6344, -27.9821, 0.0 ], [ -67.6186, -27.9863, 0.0 ], [ -67.6122, -27.9812, 0.0 ], [ -67.5436, -27.9566, 0.0 ], [ -67.5216, -28.0212, 0.0 ], [ -67.5731, -28.0245, 0.0 ], [ -67.5904, -28.021, 0.0 ], [ -67.6047, -28.0108, 0.0 ], [ -67.6339, -28.0245, 0.0 ], [ -67.6562, -28.0161, 0.0 ], [ -67.6497, -27.9797, 0.0 ], [ -67.6344, -27.9821, 0.0 ] ] ] ] } },
{ "type": "Feature", "properties": { "circuito": "00140", "codprov": "03", "coddepto": "015" }, "geometry": { "type": "MultiPolygon", "coordinates": [ [ [ [ -67.6339, -28.0245, 0.0 ], [ -67.6047, -28.0108, 0.0 ], [ -67.5904, -28.021, 0.0 ], [ -67.5731, -28.0245, 0.0 ], [ -67.5552, -28.0269, 0.0 ], [ -67.5695, -28.0501, 0.0 ], [ -67.5952, -28.056, 0.0 ], [ -67.6339, -28.0245, 0.0 ] ] ] ] } },
{ "type": "Feature", "properties": { "circuito": "00141", "codprov": "03", "coddepto": "015" }, "geometry": { "type": "MultiPolygon", "coordinates": [ [ [ [ -67.7241, -27.5507, 0.0 ], [ -67.3312, -27.5606, 0.0 ], [ -67.3644, -27.6167, 0.0 ], [ -67.5151, -27.6089, 0.0 ], [ -67.7129, -27.615, 0.0 ], [ -67.7241, -27.5507, 0.0 ] ] ] ] } },
{ "type": "Feature", "properties": { "circuito": "00142", "codprov": "03", "coddepto": "015" }, "geometry": { "type": "MultiPolygon", "coordinates": [ [ [ [ -67.6469, -27.4603, 0.0 ], [ -67.6401, -27.2072, 0.0 ], [ -67.3028, -27.2175, 0.0 ], [ -67.3039, -27.4151, 0.0 ], [ -67.244, -27.44, 0.0 ], [ -67.2812, -27.4904, 0.0 ], [ -67.6469, -27.4603, 0.0 ] ] ] ] } },
{ "type": "Feature", "properties": { "circuito": "00143", "codprov": "03", "coddepto": "015" }, "geometry": { "type": "MultiPolygon", "coordinates": [ [ [ [ -67.5963, -28.0557, 0.0 ], [ -67.5695, -28.0501, 0.0 ], [ -67.5263, -28.0284, 0.0 ], [ -67.4662, -28.0596, 0.0 ], [ -67.5304, -28.1032, 0.0 ], [ -67.5784, -28.1141, 0.0 ], [ -67.6155, -28.0755, 0.0 ], [ -67.5963, -28.0557, 0.0 ] ] ] ] } },
{ "type": "Feature", "properties": { "circuito": "00069", "codprov": "03", "coddepto": "008" }, "geometry": { "type": "MultiPolygon", "coordinates": [ [ [ [ -65.7584, -28.5915, 0.0 ], [ -65.7576, -28.5887, 0.0 ], [ -65.755, -28.5607, 0.0 ], [ -65.7223, -28.4968, 0.0 ], [ -65.679, -28.5058, 0.0 ], [ -65.6711, -28.508, 0.0 ], [ -65.6623, -28.508, 0.0 ], [ -65.6581, -28.507, 0.0 ], [ -65.6569, -28.5029, 0.0 ], [ -65.6518, -28.4954, 0.0 ], [ -65.6474, -28.4929, 0.0 ], [ -65.6108, -28.5016, 0.0 ], [ -65.6143, -28.5051, 0.0 ], [ -65.6168, -28.5122, 0.0 ], [ -65.6145, -28.5157, 0.0 ], [ -65.611, -28.5336, 0.0 ], [ -65.6127, -28.54, 0.0 ], [ -65.6214, -28.5426, 0.0 ], [ -65.6201, -28.5488, 0.0 ], [ -65.6294, -28.5638, 0.0 ], [ -65.63, -28.5883, 0.0 ], [ -65.6272, -28.5955, 0.0 ], [ -65.7584, -28.5915, 0.0 ] ] ] ] } },
{ "type": "Feature", "properties": { "circuito": "00070", "codprov": "03", "coddepto": "008" }, "geometry": { "type": "MultiPolygon", "coordinates": [ [ [ [ -65.7971, -28.5932, 0.0 ], [ -65.7584, -28.5915, 0.0 ], [ -65.6272, -28.5955, 0.0 ], [ -65.6365, -28.6144, 0.0 ], [ -65.633, -28.6206, 0.0 ], [ -65.6385, -28.6265, 0.0 ], [ -65.6391, -28.6333, 0.0 ], [ -65.6421, -28.6355, 0.0 ], [ -65.6471, -28.6464, 0.0 ], [ -65.6545, -28.6536, 0.0 ], [ -65.6697, -28.6802, 0.0 ], [ -65.675, -28.6985, 0.0 ], [ -65.6726, -28.6974, 0.0 ], [ -65.6719, -28.7008, 0.0 ], [ -65.6834, -28.712, 0.0 ], [ -65.6761, -28.7377, 0.0 ], [ -65.6769, -28.7457, 0.0 ], [ -65.6759, -28.7525, 0.0 ], [ -65.6645, -28.7719, 0.0 ], [ -65.6646, -28.7817, 0.0 ], [ -65.6588, -28.7924, 0.0 ], [ -65.6619, -28.8042, 0.0 ], [ -65.6588, -28.8123, 0.0 ], [ -65.6716, -28.8285, 0.0 ], [ -65.6729, -28.8096, 0.0 ], [ -65.6778, -28.8029, 0.0 ], [ -65.7, -28.7869, 0.0 ], [ -65.7071, -28.7862, 0.0 ], [ -65.7103, -28.7807, 0.0 ], [ -65.7253, -28.7719, 0.0 ], [ -65.7324, -28.7732, 0.0 ], [ -65.8506, -28.7709, 0.0 ], [ -65.8455, -28.7528, 0.0 ], [ -65.8418, -28.7503, 0.0 ], [ -65.8334, -28.7238, 0.0 ], [ -65.819, -28.7202, 0.0 ], [ -65.8155, -28.7161, 0.0 ], [ -65.8149, -28.7083, 0.0 ], [ -65.8057, -28.6993, 0.0 ], [ -65.8012, -28.6888, 0.0 ], [ -65.8028, -28.6783, 0.0 ], [ -65.8118, -28.6664, 0.0 ], [ -65.8154, -28.6518, 0.0 ], [ -65.8113, -28.6392, 0.0 ], [ -65.8065, -28.6313, 0.0 ], [ -65.8061, -28.6201, 0.0 ], [ -65.8088, -28.6116, 0.0 ], [ -65.8041, -28.6096, 0.0 ], [ -65.8014, -28.6085, 0.0 ], [ -65.7961, -28.6029, 0.0 ], [ -65.7971, -28.5932, 0.0 ] ] ] ] } },
{ "type": "Feature", "properties": { "circuito": "00071", "codprov": "03", "coddepto": "008" }, "geometry": { "type": "MultiPolygon", "coordinates": [ [ [ [ -65.6736, -28.4865, 0.0 ], [ -65.6822, -28.46, 0.0 ], [ -65.6806, -28.458, 0.0 ], [ -65.6814, -28.4494, 0.0 ], [ -65.6788, -28.4457, 0.0 ], [ -65.6753, -28.4392, 0.0 ], [ -65.6754, -28.4338, 0.0 ], [ -65.6763, -28.4315, 0.0 ], [ -65.6761, -28.4272, 0.0 ], [ -65.6732, -28.4223, 0.0 ], [ -65.6261, -28.4332, 0.0 ], [ -65.5804, -28.438, 0.0 ], [ -65.5765, -28.439, 0.0 ], [ -65.5773, -28.4419, 0.0 ], [ -65.5756, -28.4434, 0.0 ], [ -65.5803, -28.4528, 0.0 ], [ -65.5831, -28.4528, 0.0 ], [ -65.5836, -28.4573, 0.0 ], [ -65.5831, -28.4606, 0.0 ], [ -65.5865, -28.4607, 0.0 ], [ -65.5854, -28.4657, 0.0 ], [ -65.5939, -28.4752, 0.0 ], [ -65.5977, -28.483, 0.0 ], [ -65.6014, -28.4831, 0.0 ], [ -65.6049, -28.4884, 0.0 ], [ -65.6034, -28.4937, 0.0 ], [ -65.6055, -28.4947, 0.0 ], [ -65.6091, -28.4984, 0.0 ], [ -65.6083, -28.5014, 0.0 ], [ -65.6736, -28.4865, 0.0 ] ] ] ] } },
{ "type": "Feature", "properties": { "circuito": "00072", "codprov": "03", "coddepto": "008" }, "geometry": { "type": "MultiPolygon", "coordinates": [ [ [ [ -65.7223, -28.4968, 0.0 ], [ -65.725, -28.4919, 0.0 ], [ -65.7297, -28.4782, 0.0 ], [ -65.729, -28.4737, 0.0 ], [ -65.7302, -28.4702, 0.0 ], [ -65.7335, -28.4683, 0.0 ], [ -65.7391, -28.4675, 0.0 ], [ -65.7377, -28.4651, 0.0 ], [ -65.7379, -28.4615, 0.0 ], [ -65.739, -28.458, 0.0 ], [ -65.7378, -28.4525, 0.0 ], [ -65.734, -28.4515, 0.0 ], [ -65.7349, -28.4462, 0.0 ], [ -65.7342, -28.4448, 0.0 ], [ -65.7349, -28.4423, 0.0 ], [ -65.7169, -28.4442, 0.0 ], [ -65.7115, -28.4498, 0.0 ], [ -65.7098, -28.4505, 0.0 ], [ -65.6962, -28.4535, 0.0 ], [ -65.6922, -28.4613, 0.0 ], [ -65.6881, -28.4619, 0.0 ], [ -65.6845, -28.4595, 0.0 ], [ -65.6822, -28.46, 0.0 ], [ -65.6736, -28.4865, 0.0 ], [ -65.7223, -28.4968, 0.0 ] ] ] ] } },
{ "type": "Feature", "properties": { "circuito": "00073", "codprov": "03", "coddepto": "008" }, "geometry": { "type": "MultiPolygon", "coordinates": [ [ [ [ -65.7223, -28.4968, 0.0 ], [ -65.6736, -28.4865, 0.0 ], [ -65.6474, -28.4929, 0.0 ], [ -65.6518, -28.4954, 0.0 ], [ -65.6569, -28.5029, 0.0 ], [ -65.6581, -28.507, 0.0 ], [ -65.6623, -28.508, 0.0 ], [ -65.6711, -28.508, 0.0 ], [ -65.679, -28.5058, 0.0 ], [ -65.7223, -28.4968, 0.0 ] ] ] ] } },
{ "type": "Feature", "properties": { "circuito": "00074", "codprov": "03", "coddepto": "008" }, "geometry": { "type": "MultiPolygon", "coordinates": [ [ [ [ -65.7155, -28.4453, 0.0 ], [ -65.7142, -28.4427, 0.0 ], [ -65.7084, -28.4259, 0.0 ], [ -65.7064, -28.4257, 0.0 ], [ -65.7019, -28.4263, 0.0 ], [ -65.6997, -28.4262, 0.0 ], [ -65.6991, -28.4241, 0.0 ], [ -65.6945, -28.4235, 0.0 ], [ -65.6943, -28.4233, 0.0 ], [ -65.6937, -28.4234, 0.0 ], [ -65.692, -28.4219, 0.0 ], [ -65.6889, -28.4202, 0.0 ], [ -65.6733, -28.4202, 0.0 ], [ -65.6732, -28.4224, 0.0 ], [ -65.6762, -28.4274, 0.0 ], [ -65.6766, -28.431, 0.0 ], [ -65.676, -28.4328, 0.0 ], [ -65.6754, -28.4338, 0.0 ], [ -65.6753, -28.4392, 0.0 ], [ -65.6788, -28.4457, 0.0 ], [ -65.6803, -28.4472, 0.0 ], [ -65.6814, -28.4494, 0.0 ], [ -65.6806, -28.458, 0.0 ], [ -65.6822, -28.46, 0.0 ], [ -65.6845, -28.4595, 0.0 ], [ -65.6881, -28.4619, 0.0 ], [ -65.6922, -28.4613, 0.0 ], [ -65.694, -28.4585, 0.0 ], [ -65.6962, -28.4535, 0.0 ], [ -65.7098, -28.4505, 0.0 ], [ -65.7115, -28.4498, 0.0 ], [ -65.713, -28.4485, 0.0 ], [ -65.7155, -28.4453, 0.0 ] ] ] ] } },
{ "type": "Feature", "properties": { "circuito": "00075", "codprov": "03", "coddepto": "008" }, "geometry": { "type": "MultiPolygon", "coordinates": [ [ [ [ -65.7389, -28.4669, 0.0 ], [ -65.7335, -28.4683, 0.0 ], [ -65.7302, -28.4702, 0.0 ], [ -65.729, -28.4737, 0.0 ], [ -65.7297, -28.4782, 0.0 ], [ -65.725, -28.4919, 0.0 ], [ -65.7223, -28.4968, 0.0 ], [ -65.7304, -28.5132, 0.0 ], [ -65.755, -28.5607, 0.0 ], [ -65.7584, -28.5915, 0.0 ], [ -65.7971, -28.5932, 0.0 ], [ -65.7971, -28.5842, 0.0 ], [ -65.7915, -28.5771, 0.0 ], [ -65.7975, -28.5718, 0.0 ], [ -65.7901, -28.5674, 0.0 ], [ -65.7889, -28.5581, 0.0 ], [ -65.7855, -28.5573, 0.0 ], [ -65.7858, -28.551, 0.0 ], [ -65.7898, -28.5485, 0.0 ], [ -65.7891, -28.5395, 0.0 ], [ -65.7859, -28.5382, 0.0 ], [ -65.7783, -28.5019, 0.0 ], [ -65.7683, -28.4886, 0.0 ], [ -65.7655, -28.489, 0.0 ], [ -65.7636, -28.4848, 0.0 ], [ -65.7565, -28.4793, 0.0 ], [ -65.7541, -28.4789, 0.0 ], [ -65.7506, -28.4748, 0.0 ], [ -65.746, -28.473, 0.0 ], [ -65.7438, -28.4708, 0.0 ], [ -65.7406, -28.4703, 0.0 ], [ -65.7391, -28.4675, 0.0 ], [ -65.7389, -28.4669, 0.0 ] ] ] ] } },
{ "type": "Feature", "properties": { "circuito": "00076", "codprov": "03", "coddepto": "008" }, "geometry": { "type": "MultiPolygon", "coordinates": [ [ [ [ -65.7291, -28.443, 0.0 ], [ -65.7338, -28.4425, 0.0 ], [ -65.7338, -28.4423, 0.0 ], [ -65.7331, -28.4411, 0.0 ], [ -65.7281, -28.4346, 0.0 ], [ -65.7262, -28.4329, 0.0 ], [ -65.7243, -28.43, 0.0 ], [ -65.7236, -28.4248, 0.0 ], [ -65.7117, -28.425, 0.0 ], [ -65.7084, -28.4259, 0.0 ], [ -65.7142, -28.4427, 0.0 ], [ -65.7155, -28.4453, 0.0 ], [ -65.7169, -28.4442, 0.0 ], [ -65.7233, -28.4438, 0.0 ], [ -65.7264, -28.4431, 0.0 ], [ -65.7283, -28.4432, 0.0 ], [ -65.7291, -28.443, 0.0 ] ] ] ] } },
{ "type": "Feature", "properties": { "circuito": "0003A", "codprov": "03", "coddepto": "001" }, "geometry": { "type": "MultiPolygon", "coordinates": [ [ [ [ -65.8131757, -28.5236154, 0.0 ], [ -65.8124033, -28.5221071, 0.0 ], [ -65.8137766, -28.5089843, 0.0 ], [ -65.8157507, -28.50378, 0.0 ], [ -65.8151498, -28.5012155, 0.0 ], [ -65.8157507, -28.4929934, 0.0 ], [ -65.8136049, -28.4873357, 0.0 ], [ -65.8185, -28.4778, 0.0 ], [ -65.9102, -28.4821, 0.0 ], [ -65.909221, -28.492205, 0.0 ], [ -65.8414, -28.5438, 0.0 ], [ -65.8131757, -28.5236154, 0.0 ] ] ] ] } },
{ "type": "Feature", "properties": { "circuito": "00003", "codprov": "03", "coddepto": "001" }, "geometry": { "type": "MultiPolygon", "coordinates": [ [ [ [ -65.7991, -28.5136, 0.0 ], [ -65.7885, -28.5018, 0.0 ], [ -65.7828, -28.4886, 0.0 ], [ -65.7825, -28.4824, 0.0 ], [ -65.7795, -28.4825, 0.0 ], [ -65.7795, -28.4761, 0.0 ], [ -65.8185, -28.4778, 0.0 ], [ -65.8136049, -28.4873357, 0.0 ], [ -65.815579, -28.4935969, 0.0 ], [ -65.8151498, -28.5012155, 0.0 ], [ -65.8157507, -28.50378, 0.0 ], [ -65.8137766, -28.5089843, 0.0 ], [ -65.8130041, -28.5160739, 0.0 ], [ -65.8124033, -28.5221071, 0.0 ], [ -65.8131757, -28.5236154, 0.0 ], [ -65.7991, -28.5136, 0.0 ] ] ] ] } }
]
}
